RecId,EqId,EqName,Year,Station,StationSeqNo,StationId,Magnitude,Strike,Dip,Rake,Mechanism,HypoCtrLatitude ,HypoCtrLongitude,HypocenterDepth,Fault Name,EpiD,HypD,JBD,CRD,RmsD,ClstD,Rx,Vs30,StationLatitude,StationLongitude,FileNameHorizontal1,FileNameHorizontal2,FileNameVertical,H1Azimith,H2Azimuth,LowestUsableFreqH1,LowestUsableFreqH2,Lowest Usable Freq,PGA,PGV,PGD,T0.010S,T0.020S,T0.022S,T0.025S,T0.029S,T0.030S,T0.032S,T0.035S,T0.036S,T0.040S,T0.042S,T0.044S,T0.045S,T0.046S,T0.048S,T0.050S,T0.055S,T0.060S,T0.065S,T0.067S,T0.070S,T0.075S,T0.080S,T0.085S,T0.090S,T0.095S,T0.100S,T0.110S,T0.120S,T0.130S,T0.133S,T0.140S,T0.150S,T0.160S,T0.170S,T0.180S,T0.190S,T0.200S,T0.220S,T0.240S,T0.250S,T0.260S,T0.280S,T0.290S,T0.300S,T0.320S,T0.340S,T0.350S,T0.360S,T0.380S,T0.400S,T0.420S,T0.440S,T0.450S,T0.460S,T0.480S,T0.500S,T0.550S,T0.600S,T0.650S,T0.667S,T0.700S,T0.750S,T0.800S,T0.850S,T0.900S,T0.950S,T1.000S,T1.100S,T1.200S,T1.300S,T1.400S,T1.500S,T1.600S,T1.700S,T1.800S,T1.900S,T2.000S,T2.200S,T2.400S,T2.500S,T2.600S,T2.800S,T3.000S,T3.200S,T3.400S,T3.500S,T3.600S,T3.800S,T4.000S,T4.200S,T4.400S,T4.600S,T4.800S,T5.000S,T5.500S,T6.000S,T6.500S,T7.000S,T7.500S,T8.000S,T8.500S,T9.000S,T9.500S,T10.000S,T11.000S,T12.000S,T13.000S,T14.000S,T15.000S,T20.000S,AveStrike ,Damping,RotD
162,0050,Imperial Valley-06,1979,Calexico Fire Station,209,5053,6.53,323,80,180,0,32.6440,-115.3070,9.96,Imperial fault,17.66,20.27,10.45,,17.41,10.45,-10.45,231.23,32.6695,-115.493,IMPVALL.H\H-CXO225.AT2,IMPVALL.H\H-CXO315.AT2,IMPVALL.H\H-CXO-UP.AT2,225,315,0.050,0.041,0.050,2.3764E-01,2.1309E+01,1.3931E+01,2.3804E-01,2.4179E-01,2.4537E-01,2.4417E-01,2.4162E-01,2.4235E-01,2.4089E-01,2.4693E-01,2.4704E-01,2.5709E-01,2.6090E-01,2.6066E-01,2.5970E-01,2.5857E-01,2.5977E-01,2.6197E-01,2.8320E-01,3.0244E-01,3.1258E-01,3.2005E-01,3.3250E-01,3.6108E-01,3.5607E-01,3.6193E-01,3.8177E-01,4.2502E-01,5.4993E-01,5.8040E-01,6.1510E-01,6.9986E-01,7.2531E-01,6.5159E-01,5.8295E-01,5.8686E-01,6.5304E-01,6.1343E-01,6.1255E-01,5.0843E-01,4.4801E-01,5.1280E-01,5.6179E-01,6.0521E-01,5.7680E-01,5.4692E-01,5.5454E-01,6.7166E-01,6.9117E-01,7.0814E-01,7.0826E-01,6.3473E-01,5.3298E-01,4.4112E-01,4.4497E-01,5.1097E-01,5.4969E-01,5.6313E-01,5.4874E-01,5.1770E-01,3.7772E-01,3.1948E-01,3.1198E-01,3.0733E-01,2.6415E-01,2.1953E-01,2.1211E-01,1.7915E-01,1.6798E-01,1.5960E-01,1.5601E-01,1.4053E-01,1.3860E-01,1.4683E-01,1.4262E-01,1.2990E-01,1.1275E-01,9.9330E-02,8.4180E-02,7.1435E-02,6.2570E-02,5.4646E-02,4.9260E-02,5.5148E-02,5.7127E-02,5.3512E-02,4.9910E-02,4.5681E-02,4.3703E-02,4.1575E-02,4.2394E-02,3.8312E-02,3.6596E-02,3.4452E-02,3.2959E-02,3.1971E-02,3.1400E-02,3.0631E-02,3.2507E-02,3.0597E-02,2.9451E-02,2.6521E-02,2.3571E-02,1.9922E-02,1.6423E-02,1.4233E-02,1.2453E-02,9.1983E-03,6.9411E-03,5.4175E-03,4.4053E-03,3.6157E-03,1.8628E-03,323.00,5,50
163,0050,Imperial Valley-06,1979,Calipatria Fire Station,217,5061,6.53,323,80,180,0,32.6440,-115.3070,9.96,Imperial fault,57.14,58.00,23.17,,40.49,24.6,18.52,205.78,33.1266,-115.516,IMPVALL.H\H-CAL225.AT2,IMPVALL.H\H-CAL315.AT2,IMPVALL.H\H-CAL-UP.AT2,225,315,0.063,0.088,0.088,9.7772E-02,1.4290E+01,1.0133E+01,9.7772E-02,1.0132E-01,1.0220E-01,1.0392E-01,1.1071E-01,1.1018E-01,1.1023E-01,1.1061E-01,1.0979E-01,1.0701E-01,1.0635E-01,1.0361E-01,1.0260E-01,1.0365E-01,1.0465E-01,1.0790E-01,1.1564E-01,1.2119E-01,1.2991E-01,1.3428E-01,1.4311E-01,1.5203E-01,1.6261E-01,1.6063E-01,1.5032E-01,1.5752E-01,1.6204E-01,1.5918E-01,1.5664E-01,1.7824E-01,1.8927E-01,2.0584E-01,2.2276E-01,2.2196E-01,2.3583E-01,2.6923E-01,2.9434E-01,2.9346E-01,2.8465E-01,2.8537E-01,2.7693E-01,2.9352E-01,3.1375E-01,3.1501E-01,3.1234E-01,2.8507E-01,2.3928E-01,2.2577E-01,2.2030E-01,2.0339E-01,1.7996E-01,1.6268E-01,1.5126E-01,1.4332E-01,1.3577E-01,1.2885E-01,1.2269E-01,1.1984E-01,1.1433E-01,1.2081E-01,1.2341E-01,1.2434E-01,1.1724E-01,1.0902E-01,9.9992E-02,9.8850E-02,9.6238E-02,9.6133E-02,1.0295E-01,9.2384E-02,8.0263E-02,7.6637E-02,7.3965E-02,6.9209E-02,6.3333E-02,6.0304E-02,5.4101E-02,5.1118E-02,5.1415E-02,5.3426E-02,5.1287E-02,5.1964E-02,5.3785E-02,5.0994E-02,5.0276E-02,3.9941E-02,3.7563E-02,3.6403E-02,3.4897E-02,3.5146E-02,3.8059E-02,4.4072E-02,4.5535E-02,4.5401E-02,4.2830E-02,3.0293E-02,2.8826E-02,2.1771E-02,1.9391E-02,1.6388E-02,1.4351E-02,1.5397E-02,1.4981E-02,1.3453E-02,1.2306E-02,9.7968E-03,7.3380E-03,5.7690E-03,4.5897E-03,3.6559E-03,1.4480E-03,323.00,5,50
164,0050,Imperial Valley-06,1979,Cerro Prieto,240,6604,6.53,323,80,180,0,32.6440,-115.3070,9.96,Imperial fault,24.82,26.74,15.19,,30.69,15.19,-12.73,471.53,32.421,-115.301,IMPVALL.H\H-CPE147.AT2,IMPVALL.H\H-CPE237.AT2,IMPVALL.H\H-CPEDWN.AT2,147,237,0.113,0.100,0.113,1.7137E-01,1.5880E+01,6.6028E+00,1.7275E-01,1.7307E-01,1.7300E-01,1.7341E-01,1.7617E-01,1.7755E-01,1.8186E-01,1.8563E-01,1.8432E-01,1.9006E-01,1.9077E-01,2.0043E-01,1.9723E-01,2.0250E-01,2.1556E-01,2.2348E-01,2.3456E-01,2.5538E-01,2.9649E-01,2.9483E-01,2.9365E-01,3.6778E-01,3.6102E-01,3.6386E-01,4.4306E-01,4.4727E-01,4.5602E-01,4.4837E-01,4.6047E-01,4.4395E-01,4.3974E-01,4.2513E-01,4.6534E-01,4.4195E-01,4.7661E-01,4.7209E-01,4.3242E-01,4.3775E-01,4.5779E-01,4.4805E-01,4.6461E-01,4.6126E-01,4.9985E-01,5.5560E-01,6.0661E-01,5.3823E-01,4.9936E-01,4.7310E-01,4.3573E-01,4.3077E-01,4.6361E-01,4.8042E-01,4.5844E-01,4.1935E-01,4.1216E-01,4.0076E-01,3.7674E-01,3.8354E-01,3.9870E-01,3.9358E-01,3.6088E-01,3.1359E-01,3.3097E-01,3.2597E-01,2.9893E-01,2.3727E-01,1.9937E-01,2.1215E-01,2.8550E-01,2.4320E-01,1.6415E-01,1.2583E-01,1.0872E-01,1.0499E-01,9.0222E-02,8.7682E-02,8.5591E-02,7.7051E-02,6.0398E-02,4.8051E-02,4.5494E-02,4.9042E-02,5.1936E-02,5.3772E-02,5.6307E-02,5.0211E-02,4.3293E-02,4.0078E-02,3.4131E-02,3.1467E-02,3.4115E-02,3.0816E-02,2.7910E-02,2.5165E-02,2.4537E-02,2.3242E-02,2.3890E-02,2.0507E-02,1.6840E-02,1.2102E-02,8.9747E-03,7.0867E-03,5.3797E-03,4.4795E-03,3.9226E-03,2.9995E-03,2.4259E-03,2.0487E-03,1.7080E-03,1.4222E-03,6.3031E-04,323.00,5,50
165,0050,Imperial Valley-06,1979,Chihuahua,247,6621,6.53,323,80,180,0,32.6440,-115.3070,9.96,Imperial fault,18.88,21.35,7.29,,22.77,7.29,-3.94,242.05,32.484,-115.24,IMPVALL.H\H-CHI012.AT2,IMPVALL.H\H-CHI282.AT2,IMPVALL.H\H-CHIDWN.AT2,12,282,0.100,0.225,0.225,2.6506E-01,2.8705E+01,7.7845E+00,2.6697E-01,2.6600E-01,2.6548E-01,2.6878E-01,2.7484E-01,2.7917E-01,2.8437E-01,2.7303E-01,2.7064E-01,2.7878E-01,2.8375E-01,2.8760E-01,2.8522E-01,2.8338E-01,2.9180E-01,2.9119E-01,2.9529E-01,3.0343E-01,3.2912E-01,3.2571E-01,3.3295E-01,3.6847E-01,3.6068E-01,3.7711E-01,3.7918E-01,3.7557E-01,3.9996E-01,3.9965E-01,4.3810E-01,4.7890E-01,4.9334E-01,4.9956E-01,4.1438E-01,4.0929E-01,4.5355E-01,4.9094E-01,5.0049E-01,4.5939E-01,5.6086E-01,6.3462E-01,6.6052E-01,6.6422E-01,6.1047E-01,5.4689E-01,5.0103E-01,4.6351E-01,4.0796E-01,4.4225E-01,4.8900E-01,5.0805E-01,5.5309E-01,5.8135E-01,5.9428E-01,6.0025E-01,5.9172E-01,5.5677E-01,5.4142E-01,5.7233E-01,7.2334E-01,7.7821E-01,7.9554E-01,7.6293E-01,6.7532E-01,5.8825E-01,5.5636E-01,4.3195E-01,4.0886E-01,3.8033E-01,3.3007E-01,2.9067E-01,2.6350E-01,2.3905E-01,2.0265E-01,1.7666E-01,1.6778E-01,1.4307E-01,1.3433E-01,1.1689E-01,1.0021E-01,9.9630E-02,8.9708E-02,8.3186E-02,7.3061E-02,6.9681E-02,6.5330E-02,5.6335E-02,5.2189E-02,5.1357E-02,5.4274E-02,5.3855E-02,5.2618E-02,4.9090E-02,4.2021E-02,3.8262E-02,3.3147E-02,2.2020E-02,1.4943E-02,1.2135E-02,9.5259E-03,8.6736E-03,8.3916E-03,7.5758E-03,6.8036E-03,5.7961E-03,5.0558E-03,3.6463E-03,2.6729E-03,2.2166E-03,1.9433E-03,1.8364E-03,1.0204E-03,323.00,5,50
166,0050,Imperial Valley-06,1979,Coachella Canal #4,219,5066,6.53,323,80,180,0,32.6440,-115.3070,9.96,Imperial fault,83.94,84.53,49.1,,68.84,50.1,28.71,336.49,33.36,-115.59,IMPVALL.H\H-CC4045.AT2,IMPVALL.H\H-CC4135.AT2,IMPVALL.H\H-CC4-UP.AT2,45,135,0.138,0.138,0.138,1.2238E-01,1.4529E+01,2.8940E+00,1.2241E-01,1.2338E-01,1.2371E-01,1.2281E-01,1.2401E-01,1.2336E-01,1.2326E-01,1.2396E-01,1.2411E-01,1.2445E-01,1.2552E-01,1.2617E-01,1.2641E-01,1.2657E-01,1.2678E-01,1.2719E-01,1.2650E-01,1.2577E-01,1.2526E-01,1.2574E-01,1.2735E-01,1.2786E-01,1.2905E-01,1.2800E-01,1.2714E-01,1.2501E-01,1.2477E-01,1.2458E-01,1.2500E-01,1.3401E-01,1.3777E-01,1.4600E-01,1.4870E-01,1.6167E-01,1.6556E-01,1.5469E-01,1.6309E-01,1.8966E-01,2.0410E-01,2.1643E-01,2.4452E-01,2.6041E-01,2.8821E-01,2.8481E-01,2.9370E-01,2.3828E-01,2.2797E-01,2.2422E-01,2.3726E-01,2.6943E-01,3.0567E-01,3.2604E-01,3.4913E-01,3.5328E-01,3.5718E-01,3.7726E-01,3.9722E-01,4.3433E-01,3.9909E-01,3.3407E-01,3.1658E-01,2.8693E-01,2.4542E-01,2.0015E-01,1.6908E-01,1.4189E-01,1.1646E-01,1.0555E-01,9.4197E-02,8.3093E-02,8.6121E-02,8.3169E-02,7.8602E-02,6.9565E-02,6.5571E-02,6.1842E-02,5.5641E-02,5.0823E-02,4.1123E-02,3.4739E-02,3.1663E-02,2.8885E-02,2.4376E-02,2.1034E-02,2.0015E-02,1.7124E-02,1.5192E-02,1.4231E-02,1.2249E-02,1.0437E-02,8.9441E-03,7.8351E-03,7.2873E-03,7.6275E-03,7.6795E-03,8.0378E-03,6.0918E-03,5.1421E-03,3.6848E-03,2.7241E-03,2.3870E-03,2.2615E-03,2.1007E-03,1.9216E-03,1.7406E-03,1.4082E-03,1.1354E-03,9.2179E-04,7.5723E-04,6.3147E-04,3.0757E-04,323.00,5,50
167,0050,Imperial Valley-06,1979,Compuertas,248,6622,6.53,323,80,180,0,32.6440,-115.3070,9.96,Imperial fault,22.43,24.55,13.52,,28.95,15.3,13.78,259.86,32.573,-115.083,IMPVALL.H\H-CMP015.AT2,IMPVALL.H\H-CMP285.AT2,IMPVALL.H\H-CMPDWN.AT2,15,285,0.100,0.150,0.150,1.5012E-01,1.0556E+01,3.1182E+00,1.5307E-01,1.5086E-01,1.5061E-01,1.5120E-01,1.5242E-01,1.5292E-01,1.5392E-01,1.5459E-01,1.5602E-01,1.6311E-01,1.6286E-01,1.6079E-01,1.6090E-01,1.6255E-01,1.6906E-01,1.7728E-01,1.9732E-01,2.2992E-01,2.7895E-01,2.8302E-01,2.9121E-01,3.0909E-01,3.2059E-01,3.3869E-01,3.6241E-01,4.0085E-01,4.2178E-01,3.5413E-01,3.4448E-01,3.4443E-01,3.4472E-01,3.1225E-01,3.2749E-01,3.5195E-01,3.6253E-01,3.5366E-01,3.4726E-01,3.5472E-01,3.7705E-01,4.1805E-01,4.0465E-01,3.8615E-01,3.7947E-01,3.7490E-01,3.6965E-01,3.5419E-01,3.3483E-01,3.2416E-01,3.1277E-01,2.9130E-01,2.8392E-01,2.7879E-01,2.7127E-01,2.6937E-01,2.6706E-01,2.5955E-01,2.4886E-01,2.1628E-01,1.9706E-01,1.8464E-01,1.7502E-01,1.5844E-01,1.4627E-01,1.4057E-01,1.2638E-01,1.0064E-01,1.0008E-01,8.5125E-02,6.5196E-02,7.6038E-02,8.0851E-02,5.8744E-02,5.1996E-02,4.6200E-02,5.4662E-02,6.1456E-02,4.5331E-02,3.9858E-02,3.2028E-02,3.4776E-02,3.2980E-02,2.8220E-02,2.2739E-02,2.1452E-02,2.0494E-02,1.9557E-02,2.0211E-02,2.0574E-02,2.4173E-02,2.5856E-02,2.5814E-02,2.3968E-02,2.2212E-02,1.8419E-02,1.4043E-02,1.1061E-02,9.9982E-03,8.1831E-03,6.0950E-03,4.6171E-03,3.7450E-03,3.5958E-03,3.2816E-03,3.0100E-03,2.5729E-03,1.8345E-03,1.2993E-03,1.0209E-03,8.2047E-04,6.6180E-04,3.8992E-04,323.00,5,50
169,0050,Imperial Valley-06,1979,Delta,241,6605,6.53,323,80,180,0,32.6440,-115.3070,9.96,Imperial fault,33.73,35.17,22.03,,40.51,22.03,-9.13,242.05,32.356,-115.195,IMPVALL.H\H-DLT262.AT2,IMPVALL.H\H-DLT352.AT2,IMPVALL.H\H-DLTDWN.AT2,262,352,0.088,0.088,0.088,2.6180E-01,2.6950E+01,1.7164E+01,2.6706E-01,2.6589E-01,2.6840E-01,2.7160E-01,2.6972E-01,2.6966E-01,2.7274E-01,2.8807E-01,2.9263E-01,3.4602E-01,3.4716E-01,3.5902E-01,3.6322E-01,3.6754E-01,3.8469E-01,3.9668E-01,4.0255E-01,4.5910E-01,4.2140E-01,4.2899E-01,4.2807E-01,4.0465E-01,4.3513E-01,4.8975E-01,5.0652E-01,6.0318E-01,6.9567E-01,8.1905E-01,8.8977E-01,8.8220E-01,8.9140E-01,7.9402E-01,7.6217E-01,6.9748E-01,5.9781E-01,7.1665E-01,6.9055E-01,5.4103E-01,5.2559E-01,5.9021E-01,5.8235E-01,6.3607E-01,6.3757E-01,6.4269E-01,6.9019E-01,6.3634E-01,6.0886E-01,5.5911E-01,5.5459E-01,6.0013E-01,6.3094E-01,6.6270E-01,6.9411E-01,6.9242E-01,6.9055E-01,6.6285E-01,6.5675E-01,5.4600E-01,5.5762E-01,5.6676E-01,5.4959E-01,5.3210E-01,5.1849E-01,4.7098E-01,4.6760E-01,4.4424E-01,3.9828E-01,3.5651E-01,2.6179E-01,2.5744E-01,2.5330E-01,2.5741E-01,3.1076E-01,3.5001E-01,2.9362E-01,2.4686E-01,2.1080E-01,1.9299E-01,1.7619E-01,1.5258E-01,1.6284E-01,1.7428E-01,1.3679E-01,1.2424E-01,1.1951E-01,1.1436E-01,1.0290E-01,9.0492E-02,7.8473E-02,7.4458E-02,7.8548E-02,8.6298E-02,9.4123E-02,8.6499E-02,7.7874E-02,6.1329E-02,4.6168E-02,4.1846E-02,3.1915E-02,2.5593E-02,2.8284E-02,3.5168E-02,3.2512E-02,2.6507E-02,2.1930E-02,1.4000E-02,1.0934E-02,7.2259E-03,5.1301E-03,3.9456E-03,1.8706E-03,323.00,5,50
170,0050,Imperial Valley-06,1979,EC County Center FF,151,1136,6.53,323,80,180,0,32.6440,-115.3070,9.96,Imperial fault,29.07,30.73,7.31,,15.58,7.31,-7.31,192.05,32.793,-115.562,IMPVALL.H\H-ECC002.AT2,IMPVALL.H\H-ECC092.AT2,IMPVALL.H\H-ECC-UP.AT2,2,92,0.075,0.000,0.075,2.2388E-01,5.2420E+01,3.7434E+01,2.2405E-01,2.2598E-01,2.2660E-01,2.2673E-01,2.2864E-01,2.2923E-01,2.3018E-01,2.3009E-01,2.2930E-01,2.3843E-01,2.4477E-01,2.4549E-01,2.4405E-01,2.4308E-01,2.4195E-01,2.4010E-01,2.4189E-01,2.6306E-01,2.6322E-01,2.5995E-01,2.6993E-01,2.9328E-01,2.8348E-01,3.1501E-01,3.2782E-01,3.5449E-01,3.7166E-01,3.6586E-01,3.5706E-01,3.7434E-01,3.5921E-01,3.5681E-01,4.1971E-01,4.3170E-01,4.6311E-01,4.5622E-01,4.7727E-01,5.1150E-01,4.2726E-01,4.3963E-01,4.0078E-01,3.7116E-01,4.1314E-01,4.2297E-01,4.1226E-01,4.0818E-01,4.0834E-01,4.3412E-01,4.3524E-01,3.8525E-01,3.9193E-01,4.0779E-01,4.6707E-01,5.0339E-01,5.4185E-01,5.9337E-01,5.8621E-01,5.2271E-01,5.6645E-01,5.4645E-01,5.3439E-01,5.2040E-01,4.7198E-01,4.5547E-01,4.0682E-01,4.2412E-01,4.0642E-01,3.9348E-01,3.7079E-01,3.9964E-01,4.8214E-01,4.7127E-01,3.8292E-01,3.2033E-01,2.4361E-01,2.1546E-01,2.0158E-01,2.0080E-01,2.0140E-01,2.0825E-01,2.1242E-01,2.1127E-01,1.9987E-01,1.9070E-01,1.8356E-01,1.6932E-01,1.6011E-01,1.5211E-01,1.4188E-01,1.2929E-01,1.2199E-01,1.1768E-01,1.1215E-01,1.0503E-01,9.6923E-02,7.9419E-02,7.0850E-02,6.4423E-02,5.5239E-02,4.5045E-02,3.8508E-02,3.2566E-02,2.8864E-02,2.6353E-02,2.3505E-02,1.7913E-02,1.3410E-02,1.0410E-02,8.2618E-03,6.9992E-03,3.7519E-03,323.00,5,50
171,0050,Imperial Valley-06,1979,El Centro - Meloland Geot. Array,160,1336,6.53,323,80,180,0,32.6440,-115.3070,9.96,Imperial fault,19.44,21.84,0.07,,6.19,0.07,-0.07,264.57,32.773,-115.447,IMPVALL.H\H-EMO000.AT2,IMPVALL.H\H-EMO270.AT2,IMPVALL.H\H-EMO-UP.AT2,0,270,0.000,0.100,0.100,3.1250E-01,8.3519E+01,3.4713E+01,3.1308E-01,3.1497E-01,3.1511E-01,3.1696E-01,3.2031E-01,3.2273E-01,3.2440E-01,3.2041E-01,3.1755E-01,3.1295E-01,3.1436E-01,3.1509E-01,3.1730E-01,3.2022E-01,3.2664E-01,3.2581E-01,3.1718E-01,3.2472E-01,3.3357E-01,3.4642E-01,3.5743E-01,3.4607E-01,3.4781E-01,3.5941E-01,3.5190E-01,3.5150E-01,3.4974E-01,3.7535E-01,3.9653E-01,3.9167E-01,3.9588E-01,4.0703E-01,4.0951E-01,4.2297E-01,4.3299E-01,4.5202E-01,4.4156E-01,4.6171E-01,5.0734E-01,5.1672E-01,5.3695E-01,5.5113E-01,5.8216E-01,6.1030E-01,6.2056E-01,5.9031E-01,5.5748E-01,5.9580E-01,6.2405E-01,6.2677E-01,5.9383E-01,6.0702E-01,6.0550E-01,6.0854E-01,6.1011E-01,6.1164E-01,6.6527E-01,6.9769E-01,7.7872E-01,7.7627E-01,7.6451E-01,7.2809E-01,6.5709E-01,5.9348E-01,5.2193E-01,4.6405E-01,4.1479E-01,3.9196E-01,3.8762E-01,4.0601E-01,4.2646E-01,4.4091E-01,4.4771E-01,4.5165E-01,4.4489E-01,4.3852E-01,4.3048E-01,4.2673E-01,4.1241E-01,3.9146E-01,3.7943E-01,3.6823E-01,3.6114E-01,3.3707E-01,3.0426E-01,2.6442E-01,2.4791E-01,2.3489E-01,2.0911E-01,1.8332E-01,1.5849E-01,1.3541E-01,1.1563E-01,1.0422E-01,9.3914E-02,7.2453E-02,5.8815E-02,4.8346E-02,4.0077E-02,3.3470E-02,2.8191E-02,2.3947E-02,2.0512E-02,1.7712E-02,1.5412E-02,1.2634E-02,1.0554E-02,8.9171E-03,7.6247E-03,6.5660E-03,3.5205E-03,323.00,5,50
172,0050,Imperial Valley-06,1979,El Centro Array #1,212,5056,6.53,323,80,180,0,32.6440,-115.3070,9.96,Imperial fault,35.18,36.56,19.76,,27.43,21.68,22.01,237.33,32.96,-115.319,IMPVALL.H\H-E01140.AT2,IMPVALL.H\H-E01230.AT2,IMPVALL.H\H-E01-UP.AT2,140,230,0.113,0.100,0.113,1.4458E-01,1.3333E+01,8.4925E+00,1.4503E-01,1.4865E-01,1.4710E-01,1.4907E-01,1.5229E-01,1.5335E-01,1.5668E-01,1.7062E-01,1.6928E-01,1.9708E-01,2.0570E-01,2.1843E-01,2.2002E-01,2.1667E-01,2.2783E-01,2.4319E-01,3.2217E-01,2.8939E-01,2.7442E-01,3.0848E-01,3.2793E-01,3.5825E-01,3.4274E-01,3.5475E-01,4.6547E-01,5.4572E-01,5.1645E-01,3.7553E-01,4.3414E-01,4.4441E-01,4.0655E-01,3.7135E-01,3.4734E-01,2.8806E-01,2.7705E-01,2.8094E-01,2.7591E-01,2.6909E-01,2.8942E-01,2.5384E-01,2.9275E-01,2.9695E-01,3.4074E-01,3.2887E-01,2.8622E-01,2.2557E-01,2.0568E-01,1.9231E-01,1.8588E-01,1.7250E-01,1.7422E-01,1.7518E-01,1.9883E-01,2.0954E-01,2.1850E-01,1.8589E-01,1.8515E-01,1.5466E-01,1.3059E-01,1.3821E-01,1.4143E-01,1.4279E-01,1.1850E-01,9.6213E-02,8.2008E-02,7.2232E-02,7.2203E-02,8.1846E-02,8.3581E-02,7.2166E-02,6.3345E-02,6.4213E-02,6.7367E-02,7.4746E-02,7.9985E-02,7.8229E-02,7.6654E-02,7.5073E-02,6.7671E-02,5.8875E-02,5.4932E-02,4.9958E-02,4.0534E-02,3.5822E-02,3.1899E-02,3.2631E-02,3.3778E-02,3.3626E-02,3.7066E-02,4.0397E-02,4.1149E-02,4.0484E-02,3.8180E-02,3.4588E-02,3.0781E-02,2.2911E-02,1.8465E-02,1.6896E-02,1.5047E-02,1.4732E-02,1.5593E-02,1.5902E-02,1.5217E-02,1.3085E-02,1.0354E-02,6.8629E-03,4.9411E-03,3.5696E-03,2.7306E-03,2.2646E-03,1.0965E-03,323.00,5,50
173,0050,Imperial Valley-06,1979,El Centro Array #10,103,412,6.53,323,80,180,0,32.6440,-115.3070,9.96,Imperial fault,28.79,30.46,8.6,,16.66,8.6,-8.6,202.85,32.7806,-115.5681,IMPVALL.H\H-E10050.AT2,IMPVALL.H\H-E10320.AT2,IMPVALL.H\H-E10-UP.AT2,50,320,0.075,0.041,0.075,1.9857E-01,5.0431E+01,3.1422E+01,1.9930E-01,2.1842E-01,2.2457E-01,2.2183E-01,2.1886E-01,2.1835E-01,2.1987E-01,2.1916E-01,2.1775E-01,2.1267E-01,2.1673E-01,2.1842E-01,2.1997E-01,2.2480E-01,2.3703E-01,2.4614E-01,2.6779E-01,2.8432E-01,3.2993E-01,3.5995E-01,3.8645E-01,4.1720E-01,3.8029E-01,3.5943E-01,3.7712E-01,3.7824E-01,3.5872E-01,3.8854E-01,4.2531E-01,4.7205E-01,4.9983E-01,5.0894E-01,4.5142E-01,4.3475E-01,4.6542E-01,4.7859E-01,5.1062E-01,4.9864E-01,4.8397E-01,5.1311E-01,5.6059E-01,5.7514E-01,4.8843E-01,5.1976E-01,5.1065E-01,5.4024E-01,5.3807E-01,5.0210E-01,4.6847E-01,4.1038E-01,4.0810E-01,4.3475E-01,4.2266E-01,4.3043E-01,4.4849E-01,4.5056E-01,4.5508E-01,4.1998E-01,2.9634E-01,2.6956E-01,2.3906E-01,2.3549E-01,2.4968E-01,2.4181E-01,2.2253E-01,2.0953E-01,2.3229E-01,2.5721E-01,3.1693E-01,3.5437E-01,3.6172E-01,3.5032E-01,3.3948E-01,3.0220E-01,2.8370E-01,2.6834E-01,2.5743E-01,2.4869E-01,2.2040E-01,2.0617E-01,1.9680E-01,1.8461E-01,1.7850E-01,1.6878E-01,1.5507E-01,1.4541E-01,1.3997E-01,1.3689E-01,1.2481E-01,1.1169E-01,1.0470E-01,9.6909E-02,9.1483E-02,8.5138E-02,7.9464E-02,7.8836E-02,6.9585E-02,6.6533E-02,5.8557E-02,4.9700E-02,4.0137E-02,3.3256E-02,2.9436E-02,2.5490E-02,2.1236E-02,1.6131E-02,1.2192E-02,9.2047E-03,7.0028E-03,6.0454E-03,3.0747E-03,323.00,5,50
174,0050,Imperial Valley-06,1979,El Centro Array #11,214,5058,6.53,323,80,180,0,32.6440,-115.3070,9.96,Imperial fault,29.53,31.16,12.56,,20.09,12.56,-12.56,196.25,32.7517,-115.5952,IMPVALL.H\H-E11140.AT2,IMPVALL.H\H-E11230.AT2,IMPVALL.H\H-E11-UP.AT2,140,230,0.063,0.100,0.100,3.7492E-01,4.0773E+01,2.1518E+01,3.7500E-01,3.7783E-01,3.8463E-01,3.8517E-01,3.8046E-01,3.7979E-01,3.8178E-01,3.8568E-01,3.8246E-01,3.8308E-01,3.8837E-01,3.9033E-01,3.8554E-01,3.8406E-01,3.9169E-01,3.9012E-01,3.8857E-01,3.9340E-01,4.0647E-01,4.1561E-01,4.0918E-01,4.2817E-01,4.8778E-01,4.8481E-01,4.9640E-01,5.7614E-01,5.8512E-01,6.3695E-01,6.6608E-01,6.9297E-01,6.7526E-01,6.9983E-01,8.5084E-01,1.0130E+00,1.2719E+00,1.3742E+00,1.1950E+00,1.0946E+00,1.2309E+00,1.6749E+00,1.7125E+00,1.6182E+00,1.2597E+00,1.2458E+00,1.1793E+00,1.0544E+00,1.1160E+00,1.0599E+00,9.3547E-01,7.9070E-01,7.3687E-01,6.8746E-01,7.3121E-01,7.2863E-01,7.2135E-01,6.6396E-01,6.3047E-01,5.9314E-01,5.2014E-01,4.8762E-01,4.5361E-01,4.3541E-01,3.9910E-01,3.5146E-01,2.9492E-01,2.6229E-01,2.4870E-01,2.3808E-01,2.6355E-01,2.8696E-01,2.8130E-01,2.6716E-01,2.6844E-01,2.5220E-01,2.3410E-01,2.3426E-01,2.1943E-01,1.9846E-01,1.6994E-01,1.4073E-01,1.4090E-01,1.3917E-01,1.3244E-01,1.3330E-01,1.2434E-01,1.0691E-01,9.6884E-02,9.0022E-02,7.9901E-02,7.3037E-02,6.5218E-02,6.3530E-02,6.1707E-02,5.9808E-02,5.7216E-02,5.8727E-02,5.9027E-02,5.4878E-02,4.9669E-02,4.5894E-02,3.8148E-02,3.2104E-02,2.6266E-02,2.1199E-02,1.8443E-02,1.4242E-02,1.1090E-02,8.6995E-03,6.8419E-03,5.7344E-03,2.8119E-03,323.00,5,50
