RecId,EqId,EqName,Year,Station,StationSeqNo,StationId,Magnitude,Strike,Dip,Rake,Mechanism,HypoCtrLatitude ,HypoCtrLongitude,HypocenterDepth,Fault Name,EpiD,HypD,JBD,CRD,RmsD,ClstD,Rx,Vs30,StationLatitude,StationLongitude,FileNameHorizontal1,FileNameHorizontal2,FileNameVertical,H1Azimith,H2Azimuth,LowestUsableFreqH1,LowestUsableFreqH2,Lowest Usable Freq,PGA,PGV,PGD,T0.010S,T0.020S,T0.022S,T0.025S,T0.029S,T0.030S,T0.032S,T0.035S,T0.036S,T0.040S,T0.042S,T0.044S,T0.045S,T0.046S,T0.048S,T0.050S,T0.055S,T0.060S,T0.065S,T0.067S,T0.070S,T0.075S,T0.080S,T0.085S,T0.090S,T0.095S,T0.100S,T0.110S,T0.120S,T0.130S,T0.133S,T0.140S,T0.150S,T0.160S,T0.170S,T0.180S,T0.190S,T0.200S,T0.220S,T0.240S,T0.250S,T0.260S,T0.280S,T0.290S,T0.300S,T0.320S,T0.340S,T0.350S,T0.360S,T0.380S,T0.400S,T0.420S,T0.440S,T0.450S,T0.460S,T0.480S,T0.500S,T0.550S,T0.600S,T0.650S,T0.667S,T0.700S,T0.750S,T0.800S,T0.850S,T0.900S,T0.950S,T1.000S,T1.100S,T1.200S,T1.300S,T1.400S,T1.500S,T1.600S,T1.700S,T1.800S,T1.900S,T2.000S,T2.200S,T2.400S,T2.500S,T2.600S,T2.800S,T3.000S,T3.200S,T3.400S,T3.500S,T3.600S,T3.800S,T4.000S,T4.200S,T4.400S,T4.600S,T4.800S,T5.000S,T5.500S,T6.000S,T6.500S,T7.000S,T7.500S,T8.000S,T8.500S,T9.000S,T9.500S,T10.000S,T11.000S,T12.000S,T13.000S,T14.000S,T15.000S,T20.000S,AveStrike ,Damping,RotD
150,0048,Coyote Lake,1979,Gilroy Array #6,451,57383,5.74,336,80,176,0,37.0650,-121.4900,8,Calaveras fault south,4.37,9.12,0.42,,6.77,3.11,-0.41,663.31,37.026,-121.484,COYOTELK\G06230.AT2,COYOTELK\G06320.AT2,COYOTELK\G06-UP.AT2,230,320,0.088,0.125,0.125,3.7961E-01,3.6210E+01,8.8667E+00,3.8009E-01,3.8336E-01,3.8230E-01,3.8680E-01,3.8932E-01,3.9044E-01,3.9417E-01,3.9211E-01,3.9396E-01,3.9701E-01,3.9516E-01,4.0131E-01,3.9954E-01,4.0123E-01,4.0566E-01,4.1039E-01,4.3989E-01,4.3689E-01,4.2381E-01,4.4236E-01,4.5420E-01,4.5118E-01,4.6904E-01,4.9314E-01,5.0450E-01,5.0247E-01,4.7641E-01,5.1845E-01,4.8317E-01,5.0632E-01,5.0029E-01,5.0493E-01,5.6455E-01,6.4054E-01,6.9767E-01,6.8046E-01,6.9823E-01,7.2906E-01,7.2904E-01,8.2155E-01,8.7279E-01,9.3800E-01,1.0324E+00,1.0528E+00,1.0630E+00,1.1106E+00,1.0904E+00,1.0608E+00,1.0256E+00,9.6662E-01,9.0403E-01,8.4394E-01,7.9514E-01,7.6983E-01,7.4542E-01,7.0304E-01,6.7041E-01,6.2861E-01,6.1541E-01,6.0506E-01,6.0195E-01,5.9566E-01,5.8152E-01,5.5772E-01,5.2755E-01,4.9633E-01,4.6304E-01,4.2830E-01,3.6975E-01,3.1969E-01,2.7435E-01,2.3282E-01,2.0435E-01,1.8096E-01,1.5951E-01,1.4345E-01,1.3003E-01,1.1749E-01,9.5189E-02,7.7245E-02,6.9829E-02,6.3309E-02,5.2040E-02,4.2870E-02,3.5437E-02,2.9693E-02,2.7828E-02,2.6048E-02,2.2684E-02,1.9703E-02,1.8097E-02,1.6672E-02,1.5397E-02,1.4252E-02,1.3223E-02,1.1071E-02,9.3854E-03,8.0394E-03,6.9590E-03,6.0819E-03,5.3617E-03,4.7610E-03,4.2552E-03,3.8253E-03,3.4571E-03,2.8667E-03,2.4171E-03,2.0651E-03,1.7845E-03,1.5573E-03,8.8098E-04,336.01,5,50
151,0048,Coyote Lake,1979,Halls Valley,448,57191,5.74,336,80,176,0,37.0650,-121.4900,8,Calaveras fault south,36.29,37.16,33.69,,37.52,33.83,-4.88,281.61,37.338,-121.714,COYOTELK\HVR150.AT2,COYOTELK\HVR240.AT2,COYOTELK\HVR-UP.AT2,150,240,0.375,0.375,0.375,3.9481E-02,2.6987E+00,3.9982E-01,3.9506E-02,3.9787E-02,3.9829E-02,3.9826E-02,4.0140E-02,4.0084E-02,4.0241E-02,4.0541E-02,4.0652E-02,4.0697E-02,4.0558E-02,4.0900E-02,4.1056E-02,4.1034E-02,4.1177E-02,4.0661E-02,4.1614E-02,4.0998E-02,4.1712E-02,4.2705E-02,4.3328E-02,4.3708E-02,4.7021E-02,4.8632E-02,5.1290E-02,5.1616E-02,5.2577E-02,5.0231E-02,5.5982E-02,5.6924E-02,6.0284E-02,6.2497E-02,6.3011E-02,6.6705E-02,8.3998E-02,9.4259E-02,1.0590E-01,1.0761E-01,9.4561E-02,1.1508E-01,1.2787E-01,1.2701E-01,1.2109E-01,1.1784E-01,1.1121E-01,1.1402E-01,1.1935E-01,1.2910E-01,1.2887E-01,1.3636E-01,1.4102E-01,1.2660E-01,9.6908E-02,8.5023E-02,7.4682E-02,6.9429E-02,6.2223E-02,6.0910E-02,5.3225E-02,4.4863E-02,4.4610E-02,4.6596E-02,4.8425E-02,5.2062E-02,5.1475E-02,4.6616E-02,4.4183E-02,4.3889E-02,3.4498E-02,2.5597E-02,2.1855E-02,1.5898E-02,1.5267E-02,1.3421E-02,1.0947E-02,1.0430E-02,9.2915E-03,8.6323E-03,7.5618E-03,8.1499E-03,7.1962E-03,6.4112E-03,4.9513E-03,3.9620E-03,3.1447E-03,2.6164E-03,2.4290E-03,2.2843E-03,1.9456E-03,1.7013E-03,1.5467E-03,1.3425E-03,1.1065E-03,9.7192E-04,8.6100E-04,6.3770E-04,5.0350E-04,4.1255E-04,3.4639E-04,2.9578E-04,2.5613E-04,2.2442E-04,1.9857E-04,1.7717E-04,1.5922E-04,1.3090E-04,1.0973E-04,9.3421E-05,8.0554E-05,7.0207E-05,3.9661E-05,336.01,5,50
152,0048,Coyote Lake,1979,"SJB Overpass, Bent 3 g.l.",421,47315,5.74,336,80,176,0,37.0650,-121.4900,8,Calaveras fault south,23.91,25.21,20.44,,24.02,20.67,-15.47,367.43,36.862,-121.578,COYOTELK\SJ3067.AT2,COYOTELK\SJ3337.AT2,COYOTELK\SJ3-UP.AT2,67,337,0.125,0.250,0.250,1.0906E-01,6.7232E+00,1.0405E+00,1.1013E-01,1.1866E-01,1.2499E-01,1.3228E-01,1.3546E-01,1.3761E-01,1.4645E-01,1.6226E-01,1.6956E-01,1.8818E-01,1.7916E-01,1.7326E-01,1.7246E-01,1.7052E-01,1.6344E-01,1.5597E-01,1.4403E-01,1.4700E-01,1.3511E-01,1.3381E-01,1.4022E-01,1.4141E-01,1.4809E-01,1.5129E-01,1.5033E-01,1.6259E-01,1.6972E-01,1.5516E-01,1.5966E-01,1.4826E-01,1.5082E-01,1.5553E-01,1.6274E-01,1.5956E-01,1.6491E-01,2.1336E-01,2.4497E-01,2.4938E-01,2.2509E-01,1.8525E-01,1.6550E-01,1.7940E-01,2.1158E-01,2.2397E-01,2.3441E-01,2.3668E-01,2.2513E-01,2.1666E-01,2.1891E-01,2.4763E-01,2.8484E-01,2.9503E-01,2.9826E-01,2.9347E-01,2.9015E-01,2.8457E-01,2.7296E-01,2.3096E-01,2.1534E-01,1.8727E-01,1.7699E-01,1.5791E-01,1.3401E-01,1.1631E-01,1.0135E-01,9.1519E-02,8.0143E-02,6.8808E-02,5.0397E-02,4.2015E-02,3.6129E-02,3.1268E-02,2.8254E-02,2.1100E-02,1.8872E-02,1.6802E-02,1.5955E-02,1.4662E-02,1.3346E-02,1.2077E-02,1.0618E-02,1.0664E-02,8.9107E-03,7.3315E-03,6.1375E-03,5.2883E-03,4.7522E-03,4.2286E-03,3.7282E-03,3.2865E-03,3.2257E-03,3.1964E-03,3.0954E-03,2.8389E-03,2.5870E-03,2.0380E-03,1.6977E-03,1.4936E-03,1.2522E-03,1.0220E-03,8.5852E-04,7.5424E-04,6.6501E-04,5.8731E-04,5.1813E-04,4.0430E-04,3.3179E-04,2.7792E-04,2.3983E-04,2.0856E-04,1.1458E-04,336.01,5,50
153,0048,Coyote Lake,1979,San Juan Bautista - Hwy 101/156 Overpass,422,47315,5.74,336,80,176,0,37.0650,-121.4900,8,Calaveras fault south,23.91,25.21,20.44,,24.02,20.67,-15.47,362.98,36.8619,-121.578,COYOTELK\SJ5067.AT2,COYOTELK\SJ5337.AT2,COYOTELK\SJ5-UP.AT2,67,337,0.125,0.250,0.250,9.5657E-02,6.5117E+00,1.1200E+00,9.5840E-02,9.6657E-02,9.7368E-02,1.0618E-01,1.2243E-01,1.2346E-01,1.3477E-01,1.3272E-01,1.2636E-01,1.2127E-01,1.1676E-01,1.0729E-01,1.0516E-01,1.0862E-01,1.1021E-01,1.0404E-01,1.0448E-01,1.1497E-01,1.1662E-01,1.1636E-01,1.2034E-01,1.2130E-01,1.3152E-01,1.4218E-01,1.3983E-01,1.3681E-01,1.5092E-01,1.4456E-01,1.2578E-01,1.2244E-01,1.2818E-01,1.3596E-01,1.3508E-01,1.6080E-01,1.8809E-01,2.1600E-01,2.2918E-01,2.1284E-01,1.9232E-01,1.6332E-01,1.6754E-01,1.7700E-01,1.8713E-01,1.9546E-01,2.0137E-01,2.2020E-01,1.8150E-01,1.8089E-01,1.8286E-01,2.0554E-01,2.2735E-01,2.3624E-01,2.4307E-01,2.4618E-01,2.4875E-01,2.4995E-01,2.3938E-01,2.0767E-01,1.9718E-01,1.7755E-01,1.6734E-01,1.4674E-01,1.2331E-01,1.0613E-01,9.5495E-02,8.6448E-02,7.7023E-02,6.6215E-02,4.8267E-02,3.9793E-02,3.4197E-02,3.0477E-02,2.7613E-02,2.0829E-02,1.8788E-02,1.6647E-02,1.5656E-02,1.4282E-02,1.3184E-02,1.2086E-02,1.0823E-02,1.0253E-02,8.7598E-03,7.6537E-03,6.2694E-03,5.3438E-03,5.1008E-03,4.8603E-03,4.3332E-03,3.7897E-03,3.2602E-03,2.9844E-03,3.0898E-03,3.0954E-03,2.9118E-03,2.4160E-03,1.9886E-03,1.7203E-03,1.4662E-03,1.2105E-03,1.0495E-03,9.1322E-04,7.9070E-04,6.7879E-04,5.7707E-04,4.4972E-04,3.6332E-04,3.0341E-04,2.5599E-04,2.1761E-04,1.1599E-04,336.01,5,50
154,0048,Coyote Lake,1979,"San Juan Bautista, 24 Polk St",418,47126,5.74,336,80,176,0,37.0650,-121.4900,8,Calaveras fault south,23.24,24.58,19.46,,23.3,19.7,-12.47,335.5,36.86,-121.54,COYOTELK\SJB213.AT2,COYOTELK\SJB303.AT2,COYOTELK\SJB-UP.AT2,213,303,0.125,0.125,0.125,1.0131E-01,6.8595E+00,1.4449E+00,1.0141E-01,1.0194E-01,1.0184E-01,1.0214E-01,1.0266E-01,1.0271E-01,1.0271E-01,1.0309E-01,1.0320E-01,1.0442E-01,1.0480E-01,1.0575E-01,1.0608E-01,1.0636E-01,1.0619E-01,1.0580E-01,1.0687E-01,1.0601E-01,1.0761E-01,1.0848E-01,1.1152E-01,1.1382E-01,1.2192E-01,1.3540E-01,1.5004E-01,1.5786E-01,1.6674E-01,1.6591E-01,1.5335E-01,1.8107E-01,1.8740E-01,1.8101E-01,1.7022E-01,1.8500E-01,1.8517E-01,2.0098E-01,2.4411E-01,2.7100E-01,3.0089E-01,2.9221E-01,2.7312E-01,2.4896E-01,2.1541E-01,2.1364E-01,2.2215E-01,2.1962E-01,2.1466E-01,2.0817E-01,2.0772E-01,2.2309E-01,2.4615E-01,2.4979E-01,2.5722E-01,2.5993E-01,2.6091E-01,2.5387E-01,2.3163E-01,1.9381E-01,2.0723E-01,1.8196E-01,1.5874E-01,1.6209E-01,1.6127E-01,1.2926E-01,1.1168E-01,9.3834E-02,9.0275E-02,8.9433E-02,6.4519E-02,4.9965E-02,4.6087E-02,5.0551E-02,4.8456E-02,3.9669E-02,3.3534E-02,2.8947E-02,2.5242E-02,2.4274E-02,2.7044E-02,2.6439E-02,2.5152E-02,2.4761E-02,1.7788E-02,1.3442E-02,1.1456E-02,1.1254E-02,1.1086E-02,1.0312E-02,9.6672E-03,8.4894E-03,6.5778E-03,5.5366E-03,4.9584E-03,4.5171E-03,4.0392E-03,3.0428E-03,2.9107E-03,2.6678E-03,2.1775E-03,1.7077E-03,1.5911E-03,1.3972E-03,1.2820E-03,1.1370E-03,1.0160E-03,7.9244E-04,6.1258E-04,4.7665E-04,3.8551E-04,3.1784E-04,1.5720E-04,336.01,5,50
155,0049,"Norcia, Italy",1979,Bevagna,609,,5.90,315,64,-100,1,42.7300,12.9600,6,,35.97,36.47,31.43,,38.58,31.45,-1.45,401.34,42.933,12.617,ITALY\F-BEV-NS.AT2,ITALY\F-BEV-EW.AT2,ITALY\F-BEV-UP.AT2,0,90,0.625,0.288,0.625,2.7994E-02,2.1178E+00,5.1704E-01,2.8177E-02,2.9107E-02,2.9044E-02,2.9654E-02,3.0115E-02,3.0485E-02,3.1267E-02,3.1122E-02,3.1809E-02,3.3521E-02,3.5113E-02,3.5352E-02,3.5612E-02,3.6446E-02,3.8505E-02,4.3808E-02,5.3242E-02,5.8451E-02,6.4561E-02,6.6368E-02,6.9155E-02,5.9833E-02,6.5902E-02,7.3396E-02,8.3136E-02,8.9945E-02,1.1773E-01,1.2381E-01,8.8588E-02,7.0886E-02,6.2026E-02,6.0258E-02,7.3341E-02,9.5211E-02,9.7383E-02,8.0960E-02,6.1859E-02,5.8265E-02,6.2982E-02,5.8289E-02,4.6832E-02,4.6032E-02,4.1636E-02,4.0232E-02,3.6456E-02,3.7523E-02,4.1788E-02,4.7256E-02,5.0802E-02,5.5591E-02,5.0718E-02,4.5624E-02,4.8920E-02,5.3139E-02,5.5806E-02,5.7591E-02,5.7099E-02,5.1094E-02,5.1283E-02,5.3086E-02,4.7933E-02,4.1134E-02,4.1960E-02,3.5271E-02,2.9031E-02,2.8707E-02,2.7967E-02,2.7430E-02,2.1823E-02,2.7632E-02,2.3080E-02,1.9717E-02,1.9119E-02,1.5770E-02,1.5397E-02,1.4367E-02,1.1209E-02,1.0628E-02,8.7714E-03,9.8930E-03,1.0400E-02,9.9673E-03,8.1709E-03,7.3886E-03,7.0664E-03,6.7598E-03,6.2989E-03,5.6105E-03,4.3776E-03,3.5045E-03,2.8220E-03,2.2761E-03,1.7986E-03,1.5045E-03,1.2320E-03,1.0353E-03,9.9776E-04,9.3441E-04,8.0288E-04,6.4372E-04,4.9709E-04,4.3660E-04,3.9649E-04,3.5600E-04,3.1656E-04,2.4402E-04,1.8582E-04,1.5395E-04,1.3524E-04,1.1658E-04,5.6612E-05,315.01,5,50
156,0049,"Norcia, Italy",1979,Cascia,624,,5.90,315,64,-100,1,42.7300,12.9600,6,,4.29,7.37,1.41,,6.63,4.64,4.54,585.04,42.721,13.011,ITALY\F-CSC-NS.AT2,ITALY\F-CSC-EW.AT2,ITALY\F-CSC-UP.AT2,0,90,0.413,0.250,0.413,1.8190E-01,1.1845E+01,2.4689E+00,1.8371E-01,1.9892E-01,2.0197E-01,1.9573E-01,2.1409E-01,2.2156E-01,2.2403E-01,2.1947E-01,2.2882E-01,2.3001E-01,2.2961E-01,2.5048E-01,2.5410E-01,2.7251E-01,2.7439E-01,2.7283E-01,3.5162E-01,3.8579E-01,3.6858E-01,3.9105E-01,4.0557E-01,4.0033E-01,3.9585E-01,3.8110E-01,3.8085E-01,3.9879E-01,4.5654E-01,4.6140E-01,4.5382E-01,4.5407E-01,4.5582E-01,4.3160E-01,4.3781E-01,3.9733E-01,4.0050E-01,4.6392E-01,5.0136E-01,4.5996E-01,4.9906E-01,3.7726E-01,3.5382E-01,3.3616E-01,2.9840E-01,2.8016E-01,2.6986E-01,2.4338E-01,2.4436E-01,2.4095E-01,2.6006E-01,2.8910E-01,2.6425E-01,2.3471E-01,1.9777E-01,1.8364E-01,1.8890E-01,1.9559E-01,1.9731E-01,1.9699E-01,2.1480E-01,2.1809E-01,2.1625E-01,2.0713E-01,1.8603E-01,1.6487E-01,1.5175E-01,1.4056E-01,1.3001E-01,1.2147E-01,1.0453E-01,8.8617E-02,7.5119E-02,6.3231E-02,5.2878E-02,4.4836E-02,3.7582E-02,3.2181E-02,2.8725E-02,2.7962E-02,2.7710E-02,2.7757E-02,2.6903E-02,2.5918E-02,2.3307E-02,2.1403E-02,1.8186E-02,1.5889E-02,1.5039E-02,1.4094E-02,1.2217E-02,1.0535E-02,9.3571E-03,8.2380E-03,7.1919E-03,6.5625E-03,5.9640E-03,4.6623E-03,3.6546E-03,2.8922E-03,2.3877E-03,2.0243E-03,1.7661E-03,1.5523E-03,1.3746E-03,1.2252E-03,1.0981E-03,8.9685E-04,7.4560E-04,6.2986E-04,5.3911E-04,4.6667E-04,2.5700E-04,315.01,5,50
157,0049,"Norcia, Italy",1979,Spoleto,933,,5.90,315,64,-100,1,42.7300,12.9600,6,,17.91,18.88,13.21,,19.67,13.28,-10.03,535.24,42.734,12.741,ITALY\F-SPO-NS.AT2,ITALY\F-SPO-EW.AT2,ITALY\F-SPO-UP.AT2,0,90,1.125,0.500,1.125,4.1957E-02,1.9045E+00,1.9327E-01,4.2364E-02,4.6042E-02,4.6616E-02,4.8786E-02,5.1045E-02,5.0189E-02,5.1544E-02,5.5299E-02,5.9316E-02,7.0825E-02,7.5212E-02,7.4729E-02,7.5319E-02,7.9105E-02,8.1392E-02,8.1451E-02,9.1372E-02,1.0117E-01,1.0577E-01,1.0507E-01,1.0140E-01,1.0917E-01,1.1994E-01,1.2872E-01,1.3592E-01,1.5334E-01,1.4717E-01,1.4576E-01,1.2933E-01,1.1211E-01,1.1375E-01,1.1765E-01,1.2158E-01,1.2786E-01,1.2369E-01,1.3101E-01,1.2418E-01,1.0289E-01,1.1030E-01,1.0224E-01,1.0522E-01,8.8652E-02,7.7614E-02,7.5307E-02,7.8741E-02,7.5218E-02,6.9528E-02,6.4375E-02,6.2939E-02,6.2450E-02,6.3237E-02,6.2147E-02,5.5817E-02,5.7021E-02,5.6357E-02,5.0785E-02,4.4860E-02,4.5344E-02,4.3221E-02,3.2357E-02,2.9944E-02,2.5171E-02,2.6554E-02,3.0394E-02,3.1347E-02,2.6888E-02,2.3044E-02,2.0362E-02,1.6037E-02,1.5603E-02,1.1909E-02,1.0301E-02,8.6777E-03,7.1342E-03,5.8153E-03,5.1812E-03,5.1247E-03,4.9567E-03,4.1580E-03,3.1044E-03,2.6571E-03,2.3032E-03,1.7614E-03,1.6089E-03,1.3821E-03,1.0907E-03,9.7054E-04,8.7606E-04,7.2155E-04,6.0188E-04,5.3935E-04,4.8730E-04,4.4789E-04,4.0211E-04,3.5948E-04,2.7706E-04,2.3899E-04,2.0559E-04,1.7702E-04,1.5242E-04,1.3084E-04,1.1512E-04,1.0575E-04,9.6939E-05,8.8596E-05,7.3828E-05,6.1717E-05,5.1878E-05,4.3910E-05,3.7478E-05,1.9426E-05,315,5,50
158,0050,Imperial Valley-06,1979,Aeropuerto Mexicali,243,6616,6.53,323,80,180,0,32.6440,-115.3070,9.96,Imperial fault,2.47,10.26,0,,7.09,0.34,0.35,259.86,32.651,-115.332,IMPVALL.H\H-AEP045.AT2,IMPVALL.H\H-AEP315.AT2,IMPVALL.H\H-AEP-UP.AT2,45,315,0.188,0.288,0.288,2.9094E-01,3.4949E+01,7.6005E+00,2.9483E-01,3.2194E-01,3.3561E-01,3.7599E-01,4.3525E-01,4.4454E-01,4.4217E-01,5.0586E-01,5.1538E-01,4.8499E-01,5.1813E-01,5.8061E-01,6.1879E-01,6.4473E-01,6.2919E-01,5.9427E-01,6.5667E-01,6.3910E-01,6.8761E-01,6.4817E-01,5.7730E-01,5.6462E-01,7.1350E-01,9.2404E-01,1.0130E+00,1.0164E+00,9.3280E-01,8.2122E-01,9.1758E-01,8.1246E-01,7.9199E-01,6.6915E-01,6.6743E-01,6.2637E-01,6.7014E-01,6.5470E-01,5.7778E-01,5.5540E-01,5.9162E-01,6.6828E-01,7.2484E-01,7.1136E-01,8.0442E-01,8.2335E-01,7.6931E-01,6.2997E-01,6.2311E-01,6.0231E-01,5.8757E-01,5.5207E-01,6.0410E-01,5.4027E-01,5.1991E-01,5.4034E-01,5.4293E-01,5.0613E-01,5.1794E-01,4.6596E-01,3.9893E-01,3.4093E-01,3.3655E-01,3.5457E-01,3.7890E-01,3.7339E-01,3.4580E-01,3.2247E-01,3.2320E-01,3.4667E-01,3.9698E-01,3.4851E-01,2.8206E-01,2.8332E-01,3.2929E-01,3.4625E-01,3.0792E-01,2.5307E-01,2.0814E-01,1.8188E-01,1.5125E-01,1.3271E-01,1.2017E-01,1.1124E-01,9.7785E-02,8.6626E-02,7.4346E-02,6.4562E-02,5.9859E-02,5.6111E-02,4.7881E-02,4.1581E-02,3.5622E-02,3.0033E-02,2.5725E-02,2.3038E-02,2.0671E-02,1.5924E-02,1.2454E-02,9.9025E-03,8.0090E-03,6.5885E-03,5.5659E-03,4.8293E-03,4.2285E-03,3.7821E-03,3.4065E-03,2.7985E-03,2.3347E-03,1.9746E-03,1.6905E-03,1.4628E-03,8.0235E-04,323,5,50
159,0050,Imperial Valley-06,1979,Agrarias,245,6618,6.53,323,80,180,0,32.6440,-115.3070,9.96,Imperial fault,2.62,10.30,0,,7.82,0.65,0.66,242.05,32.621,-115.301,IMPVALL.H\H-AGR003.AT2,IMPVALL.H\H-AGR273.AT2,IMPVALL.H\H-AGRDWN.AT2,3,273,0.150,0.163,0.163,2.3865E-01,3.8371E+01,1.0532E+01,2.4022E-01,2.4626E-01,2.4639E-01,2.6424E-01,3.1765E-01,3.3422E-01,3.5626E-01,3.5778E-01,3.7404E-01,3.6834E-01,3.8948E-01,3.9139E-01,4.1066E-01,4.2055E-01,4.3836E-01,4.2586E-01,3.4649E-01,3.8217E-01,4.0809E-01,4.3596E-01,4.5402E-01,5.0904E-01,5.3694E-01,5.1702E-01,5.3192E-01,5.4063E-01,5.5133E-01,5.6970E-01,5.0095E-01,3.9175E-01,4.0123E-01,3.5261E-01,3.5875E-01,3.8761E-01,3.9791E-01,3.3578E-01,3.0874E-01,2.9349E-01,3.2779E-01,3.4005E-01,3.8216E-01,4.0202E-01,3.7548E-01,3.8322E-01,3.9688E-01,4.0341E-01,3.9804E-01,3.8545E-01,4.1155E-01,4.3430E-01,4.1552E-01,4.8775E-01,5.0004E-01,4.9808E-01,4.8455E-01,4.7739E-01,5.2158E-01,6.3755E-01,5.8625E-01,4.0344E-01,3.9603E-01,4.6144E-01,4.6682E-01,4.3549E-01,4.2344E-01,3.9882E-01,3.3554E-01,2.7239E-01,2.9504E-01,3.9280E-01,3.4945E-01,3.1116E-01,2.8919E-01,2.8126E-01,2.7296E-01,2.7361E-01,2.6170E-01,2.4020E-01,1.9402E-01,1.6417E-01,1.4901E-01,1.3431E-01,1.0850E-01,8.8832E-02,7.5059E-02,6.4810E-02,6.0573E-02,5.6572E-02,5.0751E-02,4.7914E-02,4.4416E-02,4.1129E-02,3.7794E-02,3.4494E-02,3.1318E-02,2.4304E-02,1.8849E-02,1.4833E-02,1.1927E-02,9.8164E-03,8.2615E-03,7.0894E-03,6.1824E-03,5.4620E-03,4.8773E-03,3.9785E-03,3.3196E-03,2.8151E-03,2.4167E-03,2.0962E-03,1.1530E-03,323,5,50
160,0050,Imperial Valley-06,1979,Bonds Corner,210,5054,6.53,323,80,180,0,32.6440,-115.3070,9.96,Imperial fault,6.19,11.72,0.44,,9.96,2.66,2.7,223.03,32.6931,-115.3382,IMPVALL.H\H-BCR140.AT2,IMPVALL.H\H-BCR230.AT2,IMPVALL.H\H-BCR-UP.AT2,140,230,0.000,0.125,0.125,6.8661E-01,4.9562E+01,1.7975E+01,6.8765E-01,7.1944E-01,7.5426E-01,8.3148E-01,8.9073E-01,9.0943E-01,9.4309E-01,9.5112E-01,9.5715E-01,9.4154E-01,9.0511E-01,8.9235E-01,9.1014E-01,9.3220E-01,9.7313E-01,9.6447E-01,9.5869E-01,9.1335E-01,9.2452E-01,9.1306E-01,9.2184E-01,9.4766E-01,9.3364E-01,9.8866E-01,1.0908E+00,1.0576E+00,1.1176E+00,1.2856E+00,1.5987E+00,1.5693E+00,1.5643E+00,1.4820E+00,1.5619E+00,1.7635E+00,1.9576E+00,1.9011E+00,1.8425E+00,1.8796E+00,1.5838E+00,1.7475E+00,1.7237E+00,1.5989E+00,1.4775E+00,1.5641E+00,1.6598E+00,1.7057E+00,1.7024E+00,1.7715E+00,1.8082E+00,1.8435E+00,1.7175E+00,1.7880E+00,1.7001E+00,1.6150E+00,1.5251E+00,1.5201E+00,1.4917E+00,1.6264E+00,1.5044E+00,1.3780E+00,1.1775E+00,1.0551E+00,9.5359E-01,8.7744E-01,8.7763E-01,7.4069E-01,5.6692E-01,4.4289E-01,4.7974E-01,4.2732E-01,3.1399E-01,2.5907E-01,2.3124E-01,2.4001E-01,2.1626E-01,2.0198E-01,2.0157E-01,1.8900E-01,1.7864E-01,1.4453E-01,1.3937E-01,1.3092E-01,1.0819E-01,8.3797E-02,7.1112E-02,6.0187E-02,5.6948E-02,5.3683E-02,4.8497E-02,4.5940E-02,4.7233E-02,4.7291E-02,4.5309E-02,4.5533E-02,4.3622E-02,4.2983E-02,3.8357E-02,3.2810E-02,2.7763E-02,2.2695E-02,1.9359E-02,1.6120E-02,1.3392E-02,1.1469E-02,9.7622E-03,7.5817E-03,6.3203E-03,4.9104E-03,4.1477E-03,3.5446E-03,1.8988E-03,323.00,5,50
161,0050,Imperial Valley-06,1979,Brawley Airport,216,5060,6.53,323,80,180,0,32.6440,-115.3070,9.96,Imperial fault,43.15,44.29,8.54,,23.49,10.42,9.64,208.71,32.991,-115.513,IMPVALL.H\H-BRA225.AT2,IMPVALL.H\H-BRA315.AT2,IMPVALL.H\H-BRA-UP.AT2,225,315,0.040,0.054,0.054,1.7591E-01,3.7405E+01,2.1823E+01,1.7686E-01,1.7839E-01,1.8013E-01,1.8350E-01,1.9540E-01,1.9751E-01,1.9878E-01,2.1815E-01,2.1779E-01,2.2306E-01,2.2585E-01,2.2768E-01,2.3136E-01,2.3650E-01,2.5257E-01,2.6248E-01,2.7132E-01,2.8675E-01,3.1871E-01,3.2016E-01,3.0541E-01,3.0938E-01,2.9319E-01,3.2170E-01,3.2008E-01,3.1879E-01,3.3703E-01,3.3386E-01,3.6173E-01,3.9610E-01,3.9705E-01,4.1061E-01,3.7952E-01,3.9815E-01,4.4329E-01,4.7207E-01,4.6126E-01,4.3507E-01,4.4860E-01,4.2552E-01,4.8023E-01,5.2087E-01,5.9332E-01,5.8470E-01,5.3296E-01,4.6918E-01,4.3112E-01,3.9728E-01,3.7417E-01,3.6088E-01,3.6414E-01,3.7282E-01,3.7019E-01,3.6571E-01,3.5980E-01,3.6069E-01,3.5425E-01,3.4809E-01,3.2968E-01,2.9787E-01,2.8813E-01,2.7591E-01,2.7588E-01,2.7873E-01,2.7501E-01,2.6961E-01,2.6682E-01,2.6048E-01,2.3581E-01,2.1628E-01,2.0993E-01,2.0403E-01,1.9897E-01,1.9176E-01,1.8259E-01,1.7328E-01,1.6447E-01,1.5619E-01,1.4174E-01,1.3395E-01,1.3283E-01,1.3127E-01,1.2595E-01,1.1925E-01,1.1182E-01,1.0432E-01,1.0075E-01,9.7047E-02,8.9929E-02,8.3933E-02,8.4609E-02,8.5560E-02,8.3097E-02,7.8001E-02,7.2286E-02,5.4285E-02,4.1341E-02,3.4971E-02,2.9538E-02,2.4873E-02,2.0721E-02,1.9706E-02,1.8073E-02,1.6974E-02,1.5445E-02,1.1076E-02,8.9785E-03,7.5205E-03,6.1234E-03,4.7821E-03,2.3245E-03,323.00,5,50
