RecId,EqId,EqName,Year,Station,StationSeqNo,StationId,Magnitude,Strike,Dip,Rake,Mechanism,HypoCtrLatitude ,HypoCtrLongitude,HypocenterDepth,Fault Name,EpiD,HypD,JBD,CRD,RmsD,ClstD,Rx,Vs30,StationLatitude,StationLongitude,FileNameHorizontal1,FileNameHorizontal2,FileNameVertical,H1Azimith,H2Azimuth,LowestUsableFreqH1,LowestUsableFreqH2,Lowest Usable Freq,PGA,PGV,PGD,T0.010S,T0.020S,T0.022S,T0.025S,T0.029S,T0.030S,T0.032S,T0.035S,T0.036S,T0.040S,T0.042S,T0.044S,T0.045S,T0.046S,T0.048S,T0.050S,T0.055S,T0.060S,T0.065S,T0.067S,T0.070S,T0.075S,T0.080S,T0.085S,T0.090S,T0.095S,T0.100S,T0.110S,T0.120S,T0.130S,T0.133S,T0.140S,T0.150S,T0.160S,T0.170S,T0.180S,T0.190S,T0.200S,T0.220S,T0.240S,T0.250S,T0.260S,T0.280S,T0.290S,T0.300S,T0.320S,T0.340S,T0.350S,T0.360S,T0.380S,T0.400S,T0.420S,T0.440S,T0.450S,T0.460S,T0.480S,T0.500S,T0.550S,T0.600S,T0.650S,T0.667S,T0.700S,T0.750S,T0.800S,T0.850S,T0.900S,T0.950S,T1.000S,T1.100S,T1.200S,T1.300S,T1.400S,T1.500S,T1.600S,T1.700S,T1.800S,T1.900S,T2.000S,T2.200S,T2.400S,T2.500S,T2.600S,T2.800S,T3.000S,T3.200S,T3.400S,T3.500S,T3.600S,T3.800S,T4.000S,T4.200S,T4.400S,T4.600S,T4.800S,T5.000S,T5.500S,T6.000S,T6.500S,T7.000S,T7.500S,T8.000S,T8.500S,T9.000S,T9.500S,T10.000S,T11.000S,T12.000S,T13.000S,T14.000S,T15.000S,T20.000S,AveStrike ,Damping,RotD
56,0030,San Fernando,1971,Carbon Canyon Dam,71,108,6.61,288,50,83,2,34.4400,-118.4100,13,Sierra Madre-San Fernando,78.89,79.95,61.79,,73.62,61.79,-29.31,235,33.9121,-117.838,SFERN\CND130.AT2,SFERN\CND220.AT2,SFERN\CNDDWN.AT2,130,220,0.625,0.413,0.625,7.1213E-02,4.7830E+00,4.0855E+00,7.1365E-02,7.2074E-02,7.2371E-02,7.2839E-02,7.3299E-02,7.3298E-02,7.3019E-02,7.2480E-02,7.2386E-02,7.3046E-02,7.4764E-02,7.6110E-02,7.6207E-02,7.6383E-02,7.7766E-02,7.7888E-02,8.1385E-02,8.5227E-02,9.0859E-02,9.2006E-02,9.5520E-02,1.0304E-01,1.1379E-01,1.2186E-01,1.3656E-01,1.4061E-01,1.4418E-01,1.7944E-01,1.9705E-01,1.9402E-01,1.7793E-01,1.7269E-01,1.6231E-01,1.6881E-01,1.7128E-01,1.8797E-01,1.9592E-01,1.8071E-01,2.3116E-01,2.4524E-01,2.7273E-01,2.7269E-01,2.2551E-01,2.2480E-01,2.0720E-01,1.9349E-01,2.0133E-01,2.0972E-01,2.1396E-01,2.1756E-01,1.7349E-01,1.5104E-01,1.4048E-01,1.3116E-01,1.2164E-01,1.0939E-01,9.7095E-02,8.8489E-02,8.3939E-02,6.4893E-02,6.4178E-02,5.8801E-02,5.5757E-02,4.6653E-02,3.5222E-02,3.5037E-02,3.3777E-02,3.0268E-02,2.6029E-02,2.1006E-02,2.0268E-02,1.8661E-02,1.8670E-02,1.9087E-02,1.5676E-02,1.2471E-02,1.1677E-02,1.1356E-02,9.9325E-03,9.5313E-03,9.3451E-03,9.9106E-03,1.0864E-02,1.2604E-02,1.3560E-02,1.4205E-02,1.3799E-02,1.3372E-02,1.2860E-02,1.2267E-02,1.1245E-02,1.0969E-02,1.1120E-02,1.0609E-02,9.9817E-03,9.1971E-03,9.6635E-03,8.4635E-03,7.9612E-03,7.2852E-03,6.2026E-03,5.7038E-03,5.1457E-03,4.5268E-03,3.9576E-03,3.4151E-03,3.1770E-03,2.7468E-03,2.2395E-03,1.8095E-03,6.7496E-04,285.00,5,50
57,0030,San Fernando,1971,Castaic - Old Ridge Route,323,24278,6.61,288,50,83,2,34.4400,-118.4100,13,Sierra Madre-San Fernando,25.36,28.50,19.33,,30.62,22.63,13.01,450.28,34.564,-118.642,SFERN\ORR021.AT2,SFERN\ORR291.AT2,SFERN\ORRDWN.AT2,21,291,0.375,0.375,0.375,2.8672E-01,2.2183E+01,3.2944E+00,2.8985E-01,2.8787E-01,2.9205E-01,2.8767E-01,2.9875E-01,3.0029E-01,3.0332E-01,3.1980E-01,3.1894E-01,3.0660E-01,3.1471E-01,3.2026E-01,3.2313E-01,3.2378E-01,3.2480E-01,3.1963E-01,3.0760E-01,3.5114E-01,3.6725E-01,3.6022E-01,3.6201E-01,3.3934E-01,3.9880E-01,4.3050E-01,4.0374E-01,4.7238E-01,4.9409E-01,5.7273E-01,5.9940E-01,4.9729E-01,5.0436E-01,5.9194E-01,7.1577E-01,6.4334E-01,6.2104E-01,5.4582E-01,5.5233E-01,6.3363E-01,7.4511E-01,5.9900E-01,5.4702E-01,5.2228E-01,5.4843E-01,5.4693E-01,5.6653E-01,7.4784E-01,8.0494E-01,7.7781E-01,7.2490E-01,6.3203E-01,5.7807E-01,6.0607E-01,5.7072E-01,6.0092E-01,6.0830E-01,5.6965E-01,5.7003E-01,4.8166E-01,4.3658E-01,3.9314E-01,3.8268E-01,3.8454E-01,3.6980E-01,3.4072E-01,3.4570E-01,3.3572E-01,3.1144E-01,2.6922E-01,2.2046E-01,1.8685E-01,1.5657E-01,1.3545E-01,1.1435E-01,9.4210E-02,7.7720E-02,6.9701E-02,6.2596E-02,5.6256E-02,4.5629E-02,3.7260E-02,3.3759E-02,3.0658E-02,2.5457E-02,2.1321E-02,1.8020E-02,1.5362E-02,1.4229E-02,1.3206E-02,1.1441E-02,9.9849E-03,8.7736E-03,7.7585E-03,6.9016E-03,6.1733E-03,5.5501E-03,4.3400E-03,3.4791E-03,2.8567E-03,2.4418E-03,2.1514E-03,1.9087E-03,1.7042E-03,1.5303E-03,1.3813E-03,1.2528E-03,1.0438E-03,8.8262E-04,7.5583E-04,6.5437E-04,5.7194E-04,3.2510E-04,290.00,5,50
63,0030,San Fernando,1971,Fairmont Dam,76,121,6.61,288,50,83,2,34.4400,-118.4100,13,Sierra Madre-San Fernando,29.41,32.16,25.58,,36.41,30.19,34.4,634.33,34.704,-118.426,SFERN\FTR056.AT2,SFERN\FTR326.AT2,SFERN\FTR-UP.AT2,56,326,0.188,0.150,0.188,9.3858E-02,7.1308E+00,2.5772E+00,9.4991E-02,9.4635E-02,1.0087E-01,1.1139E-01,1.1482E-01,1.1409E-01,1.1328E-01,1.1513E-01,1.2195E-01,1.2367E-01,1.1673E-01,1.2788E-01,1.3265E-01,1.3246E-01,1.2597E-01,1.1866E-01,1.3012E-01,1.4348E-01,1.5378E-01,1.5402E-01,1.4716E-01,1.4216E-01,1.3467E-01,1.3004E-01,1.3041E-01,1.4699E-01,1.5490E-01,1.6560E-01,1.8207E-01,1.7082E-01,1.6333E-01,1.6435E-01,1.5860E-01,1.6168E-01,1.6781E-01,1.6133E-01,1.8150E-01,2.1612E-01,2.9608E-01,3.4986E-01,3.4012E-01,3.2303E-01,2.4930E-01,2.1189E-01,1.8158E-01,1.4063E-01,1.1268E-01,9.8239E-02,8.8291E-02,7.9890E-02,7.6426E-02,8.0842E-02,8.6976E-02,8.8348E-02,8.8321E-02,8.4008E-02,8.2326E-02,9.7803E-02,1.0240E-01,1.0473E-01,1.0506E-01,1.1134E-01,1.0799E-01,1.0304E-01,9.7368E-02,9.1620E-02,8.6027E-02,7.9175E-02,6.5978E-02,5.8103E-02,5.0560E-02,4.3769E-02,3.8266E-02,3.2911E-02,2.8998E-02,2.7169E-02,2.3829E-02,2.0524E-02,1.6840E-02,1.3331E-02,1.2146E-02,1.1547E-02,1.1496E-02,1.1730E-02,1.0053E-02,8.1615E-03,7.2507E-03,6.7764E-03,6.9152E-03,7.4347E-03,7.0180E-03,7.0026E-03,6.7468E-03,6.3882E-03,5.7790E-03,3.8434E-03,3.0875E-03,2.6133E-03,2.5658E-03,2.1566E-03,1.7884E-03,1.5198E-03,1.3252E-03,1.1524E-03,9.9858E-04,7.7367E-04,6.5634E-04,5.7360E-04,5.5147E-04,4.9376E-04,2.8716E-04,290.00,5,50
64,0030,San Fernando,1971,Fort Tejon,122,998,6.61,288,50,83,2,34.4400,-118.4100,13,Sierra Madre-San Fernando,65.58,66.86,59.52,,71.15,61.64,37.06,394.18,34.87,-118.9,SFERN\FTJ000.AT2,SFERN\FTJ090.AT2,SFERN\FTJ-UP.AT2,0,90,0.125,0.125,0.125,2.3993E-02,1.2021E+00,3.0679E-01,2.4022E-02,2.4568E-02,2.4670E-02,2.5033E-02,2.5670E-02,2.5959E-02,2.6223E-02,2.6808E-02,2.6782E-02,2.6955E-02,2.6702E-02,2.7271E-02,2.7491E-02,2.7447E-02,2.6157E-02,2.7925E-02,3.0984E-02,3.1830E-02,3.8977E-02,4.0951E-02,4.1689E-02,4.6985E-02,4.8807E-02,4.8339E-02,5.5309E-02,6.2510E-02,6.1966E-02,6.7545E-02,6.3052E-02,6.2631E-02,6.2918E-02,6.5465E-02,6.8985E-02,7.4256E-02,7.2370E-02,7.1597E-02,7.8728E-02,8.4221E-02,6.2931E-02,5.7227E-02,5.2891E-02,5.0465E-02,5.5357E-02,5.5209E-02,5.8490E-02,6.5210E-02,6.1051E-02,6.2550E-02,5.8330E-02,5.0547E-02,4.2897E-02,3.3491E-02,2.7745E-02,2.5931E-02,2.4448E-02,2.0408E-02,1.7789E-02,1.6632E-02,1.4980E-02,1.2249E-02,1.1302E-02,9.8720E-03,8.7718E-03,7.6225E-03,7.8539E-03,9.0864E-03,9.6322E-03,8.9377E-03,8.3942E-03,7.7169E-03,6.4209E-03,5.3311E-03,5.4297E-03,5.6610E-03,6.0334E-03,5.9927E-03,5.7299E-03,5.9901E-03,6.1695E-03,5.8576E-03,5.3676E-03,4.7441E-03,3.9398E-03,3.2976E-03,2.8220E-03,2.8108E-03,2.7771E-03,2.7165E-03,2.5376E-03,2.4433E-03,2.1676E-03,1.8230E-03,1.5757E-03,1.3489E-03,1.1648E-03,8.3545E-04,6.0339E-04,4.8722E-04,3.9363E-04,3.2551E-04,2.7185E-04,2.2823E-04,1.9335E-04,1.6526E-04,1.4256E-04,1.1372E-04,9.3618E-05,7.8434E-05,6.6678E-05,5.7391E-05,3.1608E-05,290.00,5,50
65,0030,San Fernando,1971,Gormon - Oso Pump Plant,121,994,6.61,288,50,83,2,34.4400,-118.4100,13,Sierra Madre-San Fernando,49.83,51.49,43.95,,55.89,46.78,36.13,308.35,34.808,-118.72,SFERN\OPP000.AT2,SFERN\OPP270.AT2,SFERN\OPP-UP.AT2,0,270,0.125,0.125,0.125,8.3392E-02,7.4167E+00,1.5397E+00,8.3496E-02,8.4327E-02,8.5545E-02,8.7802E-02,9.0511E-02,9.1832E-02,9.3605E-02,9.4589E-02,9.5788E-02,1.0121E-01,1.0182E-01,1.0181E-01,1.0149E-01,1.0135E-01,1.0173E-01,1.0344E-01,1.1029E-01,1.1844E-01,1.1770E-01,1.1939E-01,1.2082E-01,1.1336E-01,1.1101E-01,1.2009E-01,1.3060E-01,1.3697E-01,1.4158E-01,1.5737E-01,1.5704E-01,1.7267E-01,1.7788E-01,1.9042E-01,2.1316E-01,2.3233E-01,2.3817E-01,2.3982E-01,2.3899E-01,2.3895E-01,2.3611E-01,2.4722E-01,2.3344E-01,2.2646E-01,1.9616E-01,1.8829E-01,1.8721E-01,1.7827E-01,1.8181E-01,1.7743E-01,1.6733E-01,1.6392E-01,1.4919E-01,1.4682E-01,1.5582E-01,1.5363E-01,1.4658E-01,1.3205E-01,1.1366E-01,8.8992E-02,8.4389E-02,7.6446E-02,6.8928E-02,7.2222E-02,6.4052E-02,7.2945E-02,6.7240E-02,6.2954E-02,6.2636E-02,6.2055E-02,6.2452E-02,6.0037E-02,5.7004E-02,5.4907E-02,5.7395E-02,6.8086E-02,6.9830E-02,6.2491E-02,5.1858E-02,4.4550E-02,3.4779E-02,3.1758E-02,2.8031E-02,2.4821E-02,2.0104E-02,1.5797E-02,1.2526E-02,9.8075E-03,8.8593E-03,7.9796E-03,6.5785E-03,5.6426E-03,5.0386E-03,4.6952E-03,4.4142E-03,4.0356E-03,3.6560E-03,2.9206E-03,2.3698E-03,1.8633E-03,1.6395E-03,1.4232E-03,1.2030E-03,1.0227E-03,8.9591E-04,7.7934E-04,6.8059E-04,5.3317E-04,4.4958E-04,3.8371E-04,3.3070E-04,2.8745E-04,1.5909E-04,290.00,5,50
68,0030,San Fernando,1971,LA - Hollywood Stor FF,326,24303,6.61,288,50,83,2,34.4400,-118.4100,13,Sierra Madre-San Fernando,39.49,41.57,22.77,,33.23,22.77,-22.3,316.46,34.09,-118.339,SFERN\PEL090.AT2,SFERN\PEL180.AT2,SFERN\PEL-UP.AT2,90,180,0.100,0.100,0.100,2.1729E-01,2.0472E+01,1.4383E+01,2.2354E-01,2.3247E-01,2.4722E-01,2.8142E-01,3.0241E-01,3.0455E-01,3.0359E-01,2.8117E-01,2.8801E-01,2.7164E-01,2.8773E-01,2.9953E-01,2.9823E-01,2.9347E-01,2.9987E-01,3.1339E-01,3.2480E-01,3.0801E-01,3.1721E-01,3.2488E-01,3.3230E-01,3.9754E-01,4.5925E-01,5.6139E-01,6.0805E-01,6.2125E-01,6.0107E-01,6.2858E-01,6.5310E-01,5.7620E-01,5.2633E-01,5.4598E-01,5.2473E-01,5.6337E-01,5.0434E-01,5.6082E-01,6.1664E-01,5.5754E-01,5.4193E-01,6.2272E-01,6.1455E-01,5.5577E-01,5.1869E-01,4.8167E-01,4.6334E-01,4.3091E-01,4.0777E-01,4.0603E-01,4.2750E-01,4.4550E-01,3.7270E-01,3.7485E-01,3.3786E-01,3.0241E-01,2.7606E-01,2.9746E-01,3.0325E-01,3.1843E-01,2.4853E-01,2.0958E-01,2.1167E-01,1.9454E-01,2.0971E-01,2.3115E-01,2.6716E-01,2.1878E-01,2.0511E-01,1.7730E-01,1.7876E-01,1.8856E-01,2.0711E-01,2.0104E-01,1.5561E-01,1.1362E-01,9.1207E-02,8.1294E-02,8.4228E-02,8.8342E-02,9.3450E-02,8.3430E-02,7.3108E-02,7.4159E-02,7.5315E-02,7.6868E-02,8.3901E-02,8.4553E-02,8.5524E-02,8.6615E-02,8.4474E-02,7.8917E-02,7.5582E-02,7.0312E-02,6.3773E-02,5.7084E-02,5.0815E-02,3.8583E-02,2.9862E-02,2.4286E-02,2.0236E-02,1.6584E-02,1.3954E-02,1.1968E-02,1.0015E-02,8.4409E-03,7.6662E-03,6.3345E-03,5.2352E-03,4.3434E-03,3.6294E-03,3.0548E-03,1.4406E-03,285.00,5,50
69,0030,San Fernando,1971,LB - Terminal Island,81,130,6.61,288,50,83,2,34.4400,-118.4100,13,Sierra Madre-San Fernando,76.38,77.48,58.99,,70.21,58.99,-54.07,217.92,33.77,-118.23,SFERN\TLI249.AT2,SFERN\TLI339.AT2,SFERN\TLI-UP.AT2,249,339,0.125,0.125,0.125,2.8429E-02,8.6517E+00,1.0010E+01,2.8457E-02,2.8580E-02,2.8665E-02,2.8679E-02,2.8748E-02,2.8953E-02,2.9383E-02,2.9856E-02,2.9943E-02,2.9909E-02,2.9773E-02,2.9516E-02,2.9500E-02,2.9504E-02,2.9825E-02,2.9951E-02,3.0173E-02,3.1269E-02,3.1032E-02,3.1017E-02,3.1738E-02,3.2806E-02,3.4760E-02,3.4433E-02,3.4796E-02,3.8113E-02,3.9925E-02,4.3896E-02,4.7551E-02,4.8839E-02,4.7926E-02,5.1926E-02,5.3580E-02,5.1699E-02,5.2359E-02,5.7180E-02,6.2925E-02,6.8994E-02,7.1038E-02,7.8866E-02,8.2764E-02,8.5142E-02,1.0479E-01,1.0981E-01,1.0999E-01,9.8240E-02,9.0721E-02,8.7470E-02,9.2257E-02,1.0533E-01,1.0229E-01,9.2077E-02,8.1502E-02,8.2759E-02,8.4520E-02,8.3914E-02,7.9833E-02,7.6724E-02,7.5518E-02,7.3037E-02,7.5870E-02,6.7946E-02,5.7497E-02,5.2466E-02,4.6872E-02,4.1704E-02,3.8634E-02,3.5823E-02,3.8275E-02,3.5575E-02,3.7903E-02,3.8790E-02,3.2377E-02,2.7142E-02,2.7948E-02,2.6647E-02,2.5729E-02,2.7162E-02,2.5716E-02,3.2814E-02,3.1394E-02,3.2485E-02,3.7926E-02,3.9145E-02,3.7292E-02,3.5594E-02,3.6812E-02,3.8169E-02,4.3346E-02,4.6107E-02,4.4545E-02,4.4794E-02,4.5525E-02,4.5284E-02,4.1765E-02,4.2300E-02,3.8768E-02,3.0637E-02,2.3353E-02,1.8997E-02,1.5508E-02,1.2655E-02,1.0538E-02,8.3954E-03,6.7888E-03,4.8030E-03,3.4466E-03,2.8020E-03,2.6384E-03,2.2719E-03,1.4119E-03,285.00,5,50
70,0030,San Fernando,1971,Lake Hughes #1,320,24271,6.61,288,50,83,2,34.4400,-118.4100,13,Sierra Madre-San Fernando,26.10,29.16,22.23,,33.22,27.4,31.14,425.34,34.674,-118.43,SFERN\L01021.AT2,SFERN\L01111.AT2,SFERN\L01DWN.AT2,21,111,0.150,0.125,0.150,1.1833E-01,1.5868E+01,3.3283E+00,1.1895E-01,1.1986E-01,1.1988E-01,1.2221E-01,1.2672E-01,1.2796E-01,1.2561E-01,1.2604E-01,1.2377E-01,1.2274E-01,1.2369E-01,1.2790E-01,1.2717E-01,1.2654E-01,1.2922E-01,1.2909E-01,1.2593E-01,1.4499E-01,1.8065E-01,2.0533E-01,2.2322E-01,1.9524E-01,1.7337E-01,1.6327E-01,1.6031E-01,1.6760E-01,1.7399E-01,1.7718E-01,1.6432E-01,1.9670E-01,1.9393E-01,2.2512E-01,2.6522E-01,2.3550E-01,2.6527E-01,2.8407E-01,2.3486E-01,2.0292E-01,1.8315E-01,2.2470E-01,2.4946E-01,2.5289E-01,2.5066E-01,2.5804E-01,2.3629E-01,2.4861E-01,2.5098E-01,2.5585E-01,2.4594E-01,2.1621E-01,2.0888E-01,2.0888E-01,2.2476E-01,2.3031E-01,2.3513E-01,2.4671E-01,2.7225E-01,2.4270E-01,2.7183E-01,3.5343E-01,3.7350E-01,3.7694E-01,3.2629E-01,2.6137E-01,2.6199E-01,2.8429E-01,3.1118E-01,3.2669E-01,3.0667E-01,2.5036E-01,1.8768E-01,1.4502E-01,1.1561E-01,9.4204E-02,8.1641E-02,7.1216E-02,6.3056E-02,5.5118E-02,4.2231E-02,3.4059E-02,3.1031E-02,2.8324E-02,2.3497E-02,1.9244E-02,1.5570E-02,1.4034E-02,1.3548E-02,1.3065E-02,1.2051E-02,1.1071E-02,1.0186E-02,9.4497E-03,8.9211E-03,7.9878E-03,7.1387E-03,5.8813E-03,5.3091E-03,4.8429E-03,3.9928E-03,3.1220E-03,2.6167E-03,2.1741E-03,1.8035E-03,1.4991E-03,1.3514E-03,1.1585E-03,1.0282E-03,8.9133E-04,7.0560E-04,5.8769E-04,3.3474E-04,290.00,5,50
71,0030,San Fernando,1971,Lake Hughes #12,80,128,6.61,288,50,83,2,34.4400,-118.4100,13,Sierra Madre-San Fernando,20.04,23.89,13.99,,26.41,19.3,16.3,602.1,34.571,-118.56,SFERN\L12021.AT2,SFERN\L12291.AT2,SFERN\L12DWN.AT2,21,291,0.250,0.250,0.250,3.2124E-01,1.4670E+01,2.2213E+00,3.2564E-01,3.6127E-01,3.7379E-01,3.9746E-01,4.0654E-01,4.0425E-01,4.1531E-01,3.9114E-01,3.9129E-01,4.1155E-01,4.0900E-01,4.1413E-01,4.1034E-01,4.0647E-01,4.1540E-01,4.1741E-01,4.6735E-01,4.8591E-01,5.5489E-01,5.5599E-01,5.7481E-01,6.1661E-01,6.2323E-01,6.1505E-01,6.4553E-01,6.0453E-01,6.0742E-01,6.4851E-01,6.2046E-01,7.2008E-01,7.7369E-01,7.7712E-01,9.2242E-01,1.1901E+00,1.2705E+00,1.3834E+00,1.3352E+00,1.1738E+00,1.1909E+00,1.2202E+00,1.1315E+00,1.0751E+00,9.1586E-01,8.5296E-01,7.8948E-01,6.4832E-01,5.8075E-01,5.4608E-01,5.1643E-01,4.4983E-01,3.6070E-01,2.7489E-01,2.3619E-01,2.2514E-01,2.2408E-01,2.1049E-01,1.9963E-01,1.6799E-01,1.4058E-01,1.1760E-01,1.1340E-01,1.0700E-01,1.0893E-01,1.1286E-01,1.1995E-01,1.2807E-01,1.2936E-01,1.2559E-01,9.6344E-02,7.8999E-02,6.5496E-02,5.6842E-02,4.9863E-02,4.4395E-02,4.1866E-02,3.8664E-02,3.5396E-02,3.4282E-02,2.9581E-02,2.4617E-02,2.2212E-02,1.9724E-02,1.6006E-02,1.3831E-02,1.2463E-02,1.2148E-02,1.2967E-02,1.2846E-02,1.1933E-02,1.0727E-02,9.2348E-03,8.5365E-03,7.8192E-03,7.3230E-03,6.6975E-03,5.3532E-03,4.7150E-03,3.8696E-03,2.9643E-03,2.3369E-03,2.0012E-03,1.7906E-03,1.5963E-03,1.4240E-03,1.2713E-03,1.0194E-03,8.2774E-04,6.8198E-04,5.6861E-04,4.8043E-04,2.3955E-04,290.00,5,50
72,0030,San Fernando,1971,Lake Hughes #4,77,126,6.61,288,50,83,2,34.4400,-118.4100,13,Sierra Madre-San Fernando,24.18,27.46,19.45,,31.32,25.07,27.13,600.06,34.65,-118.478,SFERN\L04111.AT2,SFERN\L04201.AT2,SFERN\L04DWN.AT2,111,201,0.250,0.125,0.250,1.7861E-01,7.5501E+00,1.6879E+00,1.8164E-01,1.8178E-01,1.8660E-01,1.9826E-01,2.1484E-01,2.2719E-01,2.2468E-01,2.1721E-01,2.2500E-01,2.4618E-01,2.4844E-01,2.4465E-01,2.4728E-01,2.5197E-01,2.7584E-01,2.8801E-01,2.6669E-01,3.1482E-01,3.0932E-01,3.0036E-01,3.2728E-01,3.6816E-01,3.8085E-01,3.7225E-01,4.0387E-01,3.9287E-01,3.8557E-01,4.2009E-01,4.7890E-01,4.7874E-01,4.6200E-01,4.8832E-01,4.5945E-01,3.4307E-01,3.8268E-01,4.3622E-01,5.0185E-01,4.9748E-01,3.6252E-01,3.0410E-01,2.7441E-01,2.4098E-01,2.3188E-01,2.6213E-01,2.7733E-01,2.6015E-01,2.2738E-01,2.2343E-01,2.4319E-01,2.5316E-01,2.3885E-01,2.2828E-01,2.2837E-01,2.2006E-01,2.0758E-01,1.9510E-01,1.7250E-01,1.3701E-01,1.6331E-01,1.5236E-01,1.4346E-01,1.2641E-01,1.0241E-01,9.6855E-02,1.0035E-01,1.0399E-01,1.0345E-01,9.8566E-02,8.1669E-02,6.7122E-02,5.8296E-02,5.2569E-02,5.1024E-02,4.2957E-02,3.5241E-02,2.9183E-02,2.5704E-02,2.2865E-02,1.8376E-02,1.5447E-02,1.4280E-02,1.3179E-02,1.1204E-02,9.5171E-03,8.9993E-03,8.8775E-03,8.6712E-03,8.4406E-03,9.5691E-03,9.5519E-03,8.6610E-03,7.5296E-03,6.7956E-03,6.3973E-03,6.3484E-03,6.3398E-03,5.2214E-03,4.6024E-03,3.6206E-03,3.0571E-03,2.4621E-03,2.0002E-03,1.6794E-03,1.4646E-03,1.2718E-03,9.6436E-04,8.1559E-04,6.3780E-04,5.0189E-04,4.3731E-04,2.0670E-04,290.00,5,50
73,0030,San Fernando,1971,Lake Hughes #9,79,127,6.61,288,50,83,2,34.4400,-118.4100,13,Sierra Madre-San Fernando,23.10,26.51,17.22,,29.66,22.57,20.24,670.84,34.608,-118.558,SFERN\L09021.AT2,SFERN\L09291.AT2,SFERN\L09DWN.AT2,21,291,0.625,0.250,0.625,1.5347E-01,5.0014E+00,1.3901E+00,1.5639E-01,1.5609E-01,1.6806E-01,2.0577E-01,2.0917E-01,2.1461E-01,2.3029E-01,2.5918E-01,2.7634E-01,2.9954E-01,3.1006E-01,3.2781E-01,3.2912E-01,3.2607E-01,3.3533E-01,3.5223E-01,3.9161E-01,4.1433E-01,3.4501E-01,3.2808E-01,2.9768E-01,3.0048E-01,3.3439E-01,3.0307E-01,2.9945E-01,3.0360E-01,3.6236E-01,3.6114E-01,3.3964E-01,3.1961E-01,3.3419E-01,3.4522E-01,3.7460E-01,3.3947E-01,3.0377E-01,2.8914E-01,2.6266E-01,2.3048E-01,2.4664E-01,2.2191E-01,1.8169E-01,1.6116E-01,1.6873E-01,1.8855E-01,1.9260E-01,1.9551E-01,2.1811E-01,2.2575E-01,2.2521E-01,2.1412E-01,1.7435E-01,1.4327E-01,1.2123E-01,1.1258E-01,1.0122E-01,8.7089E-02,7.5625E-02,6.1975E-02,6.5217E-02,6.3061E-02,6.4158E-02,6.4207E-02,5.7981E-02,5.5808E-02,5.0968E-02,4.7584E-02,4.4543E-02,4.2754E-02,3.7506E-02,3.7116E-02,3.2262E-02,3.3362E-02,3.1150E-02,3.0284E-02,2.8204E-02,2.6841E-02,2.4055E-02,2.1169E-02,1.7718E-02,1.4923E-02,1.3390E-02,1.2937E-02,1.0744E-02,8.1814E-03,6.9948E-03,6.5242E-03,7.1562E-03,7.4066E-03,7.6236E-03,6.8802E-03,6.5311E-03,5.9485E-03,5.1035E-03,4.2463E-03,3.4670E-03,1.9501E-03,1.6741E-03,1.4233E-03,1.2397E-03,1.1034E-03,9.2021E-04,8.3446E-04,7.5241E-04,6.7735E-04,6.3570E-04,5.6799E-04,4.7184E-04,3.9295E-04,3.3627E-04,3.1867E-04,1.7357E-04,290.00,5,50
78,0030,San Fernando,1971,Palmdale Fire Station,82,262,6.61,288,50,83,2,34.4400,-118.4100,13,Sierra Madre-San Fernando,31.61,34.18,24.16,,35.08,28.99,31.37,452.86,34.5781,-118.114,SFERN\PDL120.AT2,SFERN\PDL210.AT2,SFERN\PDLXXX.AT2,120,210,0.188,0.163,0.188,1.2156E-01,1.1582E+01,4.0613E+00,1.2316E-01,1.2521E-01,1.2413E-01,1.3564E-01,1.3654E-01,1.3341E-01,1.4290E-01,1.4806E-01,1.4408E-01,1.3367E-01,1.3643E-01,1.3750E-01,1.3718E-01,1.3634E-01,1.4459E-01,1.4781E-01,1.5291E-01,1.7277E-01,1.8836E-01,1.9593E-01,2.1048E-01,2.4409E-01,2.7457E-01,3.1354E-01,3.4627E-01,3.7137E-01,3.7476E-01,3.8186E-01,3.3817E-01,3.8929E-01,4.1064E-01,3.7256E-01,3.3427E-01,3.0030E-01,3.1143E-01,3.1075E-01,2.9391E-01,3.0736E-01,3.0448E-01,3.5334E-01,3.4677E-01,3.2482E-01,3.6874E-01,3.6720E-01,3.3124E-01,2.6388E-01,2.4801E-01,2.3159E-01,2.2035E-01,2.0325E-01,2.0030E-01,1.7205E-01,1.6920E-01,1.7492E-01,1.8323E-01,2.0496E-01,2.1276E-01,2.6247E-01,2.4057E-01,1.8140E-01,1.7123E-01,1.5791E-01,1.5945E-01,1.4998E-01,1.6310E-01,1.6729E-01,1.4491E-01,1.3523E-01,1.5127E-01,1.4706E-01,1.7953E-01,1.7826E-01,1.6808E-01,1.5666E-01,1.5540E-01,1.3635E-01,1.1651E-01,1.0415E-01,6.9674E-02,5.1455E-02,4.4109E-02,3.6984E-02,2.7678E-02,2.3739E-02,2.2618E-02,1.9925E-02,1.8790E-02,1.7741E-02,1.6872E-02,1.5725E-02,1.4149E-02,1.1446E-02,1.0067E-02,9.4100E-03,8.8817E-03,7.4544E-03,6.1158E-03,4.7474E-03,4.5133E-03,3.7173E-03,3.2521E-03,2.9430E-03,2.5966E-03,2.2192E-03,1.9449E-03,1.4884E-03,1.2414E-03,1.0593E-03,9.1006E-04,7.6910E-04,3.6582E-04,290.00,5,50
