RecId,EqId,EqName,Year,Station,StationSeqNo,StationId,Magnitude,Strike,Dip,Rake,Mechanism,HypoCtrLatitude ,HypoCtrLongitude,HypocenterDepth,Fault Name,EpiD,HypD,JBD,CRD,RmsD,ClstD,Rx,Vs30,StationLatitude,StationLongitude,FileNameHorizontal1,FileNameHorizontal2,FileNameVertical,H1Azimith,H2Azimuth,LowestUsableFreqH1,LowestUsableFreqH2,Lowest Usable Freq,PGA,PGV,PGD,T0.010S,T0.020S,T0.022S,T0.025S,T0.029S,T0.030S,T0.032S,T0.035S,T0.036S,T0.040S,T0.042S,T0.044S,T0.045S,T0.046S,T0.048S,T0.050S,T0.055S,T0.060S,T0.065S,T0.067S,T0.070S,T0.075S,T0.080S,T0.085S,T0.090S,T0.095S,T0.100S,T0.110S,T0.120S,T0.130S,T0.133S,T0.140S,T0.150S,T0.160S,T0.170S,T0.180S,T0.190S,T0.200S,T0.220S,T0.240S,T0.250S,T0.260S,T0.280S,T0.290S,T0.300S,T0.320S,T0.340S,T0.350S,T0.360S,T0.380S,T0.400S,T0.420S,T0.440S,T0.450S,T0.460S,T0.480S,T0.500S,T0.550S,T0.600S,T0.650S,T0.667S,T0.700S,T0.750S,T0.800S,T0.850S,T0.900S,T0.950S,T1.000S,T1.100S,T1.200S,T1.300S,T1.400S,T1.500S,T1.600S,T1.700S,T1.800S,T1.900S,T2.000S,T2.200S,T2.400S,T2.500S,T2.600S,T2.800S,T3.000S,T3.200S,T3.400S,T3.500S,T3.600S,T3.800S,T4.000S,T4.200S,T4.400S,T4.600S,T4.800S,T5.000S,T5.500S,T6.000S,T6.500S,T7.000S,T7.500S,T8.000S,T8.500S,T9.000S,T9.500S,T10.000S,T11.000S,T12.000S,T13.000S,T14.000S,T15.000S,T20.000S,AveStrike ,Damping,RotD
95,0031,"Managua, Nicaragua-01",1972,"Managua, ESSO",199,3501,6.24,40,80,0,0,12.1500,-86.2700,5,,5.68,7.57,3.51,,8.33,4.06,-3.46,288.77,12.145,-86.322,MANAGUA\A-ESO090.AT2,MANAGUA\A-ESO180.AT2,MANAGUA\A-ESODWN.AT2,90,180,0.375,0.125,0.375,3.5400E-01,2.8413E+01,6.0968E+00,3.5427E-01,3.5719E-01,3.6224E-01,3.6544E-01,3.7584E-01,3.7871E-01,3.7436E-01,3.6822E-01,3.6552E-01,3.9398E-01,3.9457E-01,4.0568E-01,4.1844E-01,4.2863E-01,4.3204E-01,4.2662E-01,4.4016E-01,4.3800E-01,4.9045E-01,4.7143E-01,4.9124E-01,5.0676E-01,5.3450E-01,5.1202E-01,5.3846E-01,6.2406E-01,6.2280E-01,6.3453E-01,7.0898E-01,7.5158E-01,7.8594E-01,8.2748E-01,8.9912E-01,9.3692E-01,9.0523E-01,8.8824E-01,9.5558E-01,9.9955E-01,1.0474E+00,9.4545E-01,1.1040E+00,1.2089E+00,1.1072E+00,1.0994E+00,1.1768E+00,1.1380E+00,1.2532E+00,1.2547E+00,1.2348E+00,1.1603E+00,1.0680E+00,1.0640E+00,9.6741E-01,9.7253E-01,9.5532E-01,8.5617E-01,9.0018E-01,6.6417E-01,6.2674E-01,6.4555E-01,6.1518E-01,4.7671E-01,3.9359E-01,4.0323E-01,4.4174E-01,4.1399E-01,3.6638E-01,3.2785E-01,2.6323E-01,1.9664E-01,1.7739E-01,1.6136E-01,1.6771E-01,1.9310E-01,1.8840E-01,1.7834E-01,1.6612E-01,1.5971E-01,1.2998E-01,1.0666E-01,1.0170E-01,9.4236E-02,8.1703E-02,7.0689E-02,5.4338E-02,4.6411E-02,4.5121E-02,4.4077E-02,4.0449E-02,3.6896E-02,3.4156E-02,3.1132E-02,2.8150E-02,2.5159E-02,2.2418E-02,1.5595E-02,1.2618E-02,1.0623E-02,8.7380E-03,7.2762E-03,6.0666E-03,5.0898E-03,4.3063E-03,3.6814E-03,3.2142E-03,2.5023E-03,1.9893E-03,1.6223E-03,1.3533E-03,1.1588E-03,6.2493E-04,40.00,5,50
97,0033,Point Mugu,1973,Port Hueneme,85,272,5.65,249,49,75,2,34.0650,-119.0350,8,,18.10,19.79,15.48,,20.08,17.71,16.16,248.98,34.145,-119.206,PTMUGU\PHN180.AT2,PTMUGU\PHN270.AT2,PTMUGU\PHN-UP.AT2,180,270,0.250,0.188,0.250,9.5553E-02,1.0316E+01,2.9408E+00,9.5650E-02,9.6207E-02,9.6092E-02,9.6310E-02,9.7419E-02,9.6947E-02,9.6402E-02,1.0002E-01,1.0140E-01,1.0192E-01,1.0166E-01,1.0127E-01,1.0282E-01,1.0392E-01,1.0425E-01,1.0457E-01,1.0658E-01,1.2328E-01,1.2866E-01,1.3148E-01,1.3320E-01,1.3717E-01,1.2720E-01,1.2493E-01,1.3434E-01,1.4398E-01,1.5232E-01,1.9572E-01,1.9242E-01,1.7195E-01,1.7433E-01,1.7269E-01,1.7717E-01,1.8428E-01,1.8223E-01,1.7763E-01,1.7350E-01,1.7926E-01,1.6602E-01,1.5652E-01,1.5086E-01,1.5275E-01,1.4940E-01,1.5211E-01,1.6066E-01,1.6750E-01,1.8336E-01,1.9292E-01,2.0211E-01,2.1784E-01,2.2731E-01,2.2944E-01,2.2630E-01,2.2304E-01,2.1855E-01,2.1533E-01,2.1062E-01,2.0895E-01,1.7874E-01,1.7135E-01,1.6956E-01,1.6555E-01,1.5934E-01,1.5808E-01,1.5460E-01,1.5731E-01,1.6252E-01,1.6189E-01,1.4875E-01,1.2000E-01,1.0094E-01,8.4976E-02,6.9223E-02,5.8746E-02,5.0976E-02,4.4638E-02,4.0011E-02,3.5836E-02,2.8710E-02,2.3042E-02,2.1626E-02,2.2252E-02,2.0619E-02,1.6540E-02,1.4835E-02,1.2538E-02,1.1311E-02,1.0050E-02,8.8271E-03,8.0196E-03,7.1336E-03,6.3390E-03,5.6289E-03,5.0100E-03,4.4401E-03,3.6791E-03,3.1155E-03,2.6710E-03,2.3147E-03,2.0249E-03,1.7860E-03,1.5867E-03,1.4189E-03,1.2763E-03,1.1541E-03,9.5685E-04,8.0605E-04,6.8821E-04,5.9440E-04,5.1852E-04,2.9299E-04,249,5,50
106,0036,Oroville-01,1975,Oroville Seismograph Station,141,1051,5.89,180,65,-70,1,39.4390,-121.5280,5.5,,12.58,13.73,7.79,,11.46,7.99,-0.68,680.37,39.55,-121.5,OROVILLE\A-ORV037.AT2,OROVILLE\A-ORV307.AT2,OROVILLE\A-ORVXXX.AT2,37,307,3.750,2.875,3.750,8.0076E-02,2.2919E+00,1.0226E-01,8.0368E-02,8.1782E-02,8.2347E-02,8.3361E-02,8.4068E-02,8.4254E-02,8.3867E-02,8.5541E-02,8.6158E-02,8.8676E-02,8.7882E-02,9.4064E-02,9.5736E-02,9.5184E-02,9.7425E-02,9.6946E-02,1.0488E-01,1.1419E-01,1.4399E-01,1.6239E-01,1.7054E-01,1.7424E-01,1.7519E-01,1.7782E-01,1.6621E-01,1.9122E-01,2.2024E-01,2.5503E-01,2.9620E-01,3.6006E-01,3.4624E-01,3.3877E-01,2.7425E-01,2.6160E-01,2.4462E-01,2.4578E-01,2.4941E-01,2.2148E-01,1.8695E-01,1.2567E-01,1.1238E-01,1.1053E-01,1.0494E-01,1.0337E-01,1.0047E-01,8.4317E-02,6.8439E-02,6.4543E-02,6.2991E-02,5.9156E-02,5.1847E-02,4.2827E-02,3.6908E-02,3.5492E-02,3.2550E-02,2.8430E-02,2.3355E-02,1.5417E-02,1.3460E-02,1.0651E-02,1.0212E-02,9.6625E-03,8.1795E-03,6.5610E-03,5.5360E-03,4.6996E-03,4.0513E-03,3.5964E-03,2.8017E-03,2.2255E-03,1.8469E-03,1.5612E-03,1.3525E-03,1.1861E-03,1.0538E-03,9.4922E-04,8.7604E-04,8.0270E-04,6.9414E-04,6.0638E-04,5.6783E-04,5.3238E-04,4.7019E-04,4.1757E-04,3.7256E-04,3.3360E-04,3.1614E-04,2.9924E-04,2.6914E-04,2.4247E-04,2.1876E-04,1.9772E-04,1.7903E-04,1.6237E-04,1.4755E-04,1.1719E-04,9.4672E-05,8.0268E-05,7.0213E-05,6.1896E-05,5.4873E-05,4.9092E-05,4.4455E-05,4.0470E-05,3.6949E-05,3.1088E-05,2.6484E-05,2.2824E-05,1.9868E-05,1.7397E-05,9.9919E-06,180,5,50
121,0040,"Friuli, Italy-01",1976,Barcis,250,8002,6.50,251.8,11.8,80,2,46.3450,13.2400,5.1,,55.62,55.86,49.13,,55.92,49.38,13.43,496.46,46.187,12.554,FRIULI.A\A-BCS000.AT2,FRIULI.A\A-BCS270.AT2,FRIULI.A\A-BCS-UP.AT2,0,270,0.150,0.125,0.150,2.9492E-02,1.8512E+00,9.7182E-01,2.9747E-02,3.1056E-02,3.2280E-02,3.3679E-02,3.6710E-02,3.8076E-02,3.6488E-02,3.6983E-02,4.0546E-02,4.5658E-02,4.6101E-02,5.0251E-02,5.1744E-02,5.2671E-02,5.0486E-02,5.4317E-02,6.1695E-02,6.7404E-02,6.8704E-02,7.3070E-02,7.2171E-02,9.4497E-02,8.8792E-02,8.0085E-02,6.9017E-02,5.9603E-02,6.3381E-02,8.4123E-02,9.0023E-02,8.8881E-02,8.7415E-02,9.4300E-02,1.0019E-01,9.3715E-02,8.3244E-02,8.0174E-02,7.8762E-02,7.8233E-02,5.9918E-02,5.3398E-02,5.2518E-02,5.4767E-02,4.6292E-02,3.7382E-02,3.1553E-02,2.9731E-02,3.1278E-02,3.2634E-02,3.3659E-02,3.5391E-02,3.5599E-02,3.3450E-02,2.7428E-02,2.5401E-02,2.3767E-02,2.4033E-02,2.3838E-02,2.4188E-02,2.5844E-02,2.5144E-02,2.4771E-02,2.6167E-02,2.5684E-02,2.8208E-02,2.7278E-02,2.2669E-02,1.7691E-02,1.7094E-02,1.3403E-02,1.2576E-02,1.1385E-02,8.4897E-03,8.7162E-03,7.7590E-03,6.7854E-03,6.1777E-03,6.7844E-03,6.8158E-03,6.3530E-03,6.7642E-03,6.6949E-03,6.9158E-03,7.3027E-03,7.3915E-03,7.0958E-03,6.6224E-03,6.3583E-03,6.1106E-03,5.6102E-03,5.1348E-03,4.7589E-03,4.2638E-03,3.8761E-03,3.5819E-03,3.2721E-03,2.5087E-03,1.9924E-03,1.6850E-03,1.4274E-03,1.2150E-03,1.0410E-03,8.9749E-04,7.7886E-04,6.7965E-04,5.9647E-04,4.6763E-04,3.7388E-04,3.0450E-04,2.5244E-04,2.1209E-04,1.0466E-04,252,5,50
122,0040,"Friuli, Italy-01",1976,Codroipo,251,8004,6.50,251.8,11.8,80,2,46.3450,13.2400,5.1,,47.27,47.54,33.32,,42.42,33.4,-21.18,249.28,45.959,12.984,FRIULI.A\A-COD000.AT2,FRIULI.A\A-COD270.AT2,FRIULI.A\A-COD-UP.AT2,0,270,0.125,0.125,0.125,6.9294E-02,9.3769E+00,3.7287E+00,6.9371E-02,6.9435E-02,6.9511E-02,7.0362E-02,7.1136E-02,7.1525E-02,7.2064E-02,7.3710E-02,7.4711E-02,7.7569E-02,7.8618E-02,7.8860E-02,7.8405E-02,8.2646E-02,9.0396E-02,9.3545E-02,9.9104E-02,1.0307E-01,1.0794E-01,1.0749E-01,1.1156E-01,1.4171E-01,1.5334E-01,1.6335E-01,1.6752E-01,1.6460E-01,1.6071E-01,1.5809E-01,1.5997E-01,1.5189E-01,1.5147E-01,1.3856E-01,1.2623E-01,1.3180E-01,1.4005E-01,1.3423E-01,1.1590E-01,1.3226E-01,1.8769E-01,1.8441E-01,1.9667E-01,1.7236E-01,1.3649E-01,1.5117E-01,1.7337E-01,1.9918E-01,2.1064E-01,2.0563E-01,2.0514E-01,1.9547E-01,1.8111E-01,1.6731E-01,1.8467E-01,1.8454E-01,1.7455E-01,1.7994E-01,1.7605E-01,1.4303E-01,1.6960E-01,1.8129E-01,1.9748E-01,2.1137E-01,2.3079E-01,2.3304E-01,1.8006E-01,1.7424E-01,1.3453E-01,1.2974E-01,1.0389E-01,1.0507E-01,1.1451E-01,1.0842E-01,8.3031E-02,5.8703E-02,5.1345E-02,5.1019E-02,4.9874E-02,5.2916E-02,5.0622E-02,3.9886E-02,3.5823E-02,3.0964E-02,2.3428E-02,2.1497E-02,1.9767E-02,1.6618E-02,1.5330E-02,1.4853E-02,1.3948E-02,1.3852E-02,1.3476E-02,1.2507E-02,1.1826E-02,1.2174E-02,1.2355E-02,1.1014E-02,9.3402E-03,8.3841E-03,7.0188E-03,5.7703E-03,5.7393E-03,5.4373E-03,4.5016E-03,3.6976E-03,3.2261E-03,2.4689E-03,2.0325E-03,1.6998E-03,1.4356E-03,1.2101E-03,5.3699E-04,251.80,5,50
125,0040,"Friuli, Italy-01",1976,Tolmezzo,254,8012,6.50,251.8,11.8,80,2,46.3450,13.2400,5.1,,20.24,20.87,14.97,,24.04,15.82,23.54,505.23,46.382,12.982,FRIULI.A\A-TMZ000.AT2,FRIULI.A\A-TMZ270.AT2,FRIULI.A\A-TMZ-UP.AT2,0,270,0.138,0.163,0.163,3.2489E-01,2.4783E+01,5.0207E+00,3.2575E-01,3.2835E-01,3.2814E-01,3.3212E-01,3.3158E-01,3.3974E-01,3.4572E-01,3.5905E-01,3.5739E-01,3.5978E-01,3.5988E-01,3.7967E-01,3.8499E-01,3.8707E-01,3.8459E-01,3.7814E-01,3.6789E-01,3.9067E-01,3.8159E-01,3.7982E-01,3.7577E-01,4.2752E-01,4.6498E-01,4.8109E-01,4.6593E-01,4.9769E-01,4.9432E-01,5.0889E-01,5.3523E-01,6.6135E-01,7.1305E-01,7.7723E-01,7.4744E-01,8.1160E-01,7.2134E-01,6.5719E-01,6.3389E-01,6.3430E-01,7.2869E-01,8.0878E-01,9.2081E-01,1.0308E+00,9.9382E-01,7.9092E-01,7.3193E-01,7.7508E-01,8.3113E-01,8.4437E-01,8.5138E-01,8.1534E-01,7.7911E-01,7.3938E-01,7.0995E-01,7.1304E-01,7.1619E-01,7.9571E-01,9.0887E-01,7.5544E-01,8.8450E-01,8.0883E-01,7.5856E-01,7.0006E-01,5.7260E-01,4.4112E-01,3.6523E-01,3.2112E-01,2.8850E-01,2.8822E-01,2.3846E-01,2.0559E-01,1.5785E-01,1.2996E-01,1.2151E-01,1.0177E-01,9.2462E-02,8.3497E-02,7.0543E-02,6.0911E-02,5.1222E-02,4.5151E-02,4.2128E-02,3.8991E-02,3.5159E-02,3.1740E-02,2.8822E-02,2.6230E-02,2.5047E-02,2.3935E-02,2.2035E-02,2.0108E-02,1.9418E-02,1.8335E-02,1.6810E-02,1.5104E-02,1.3436E-02,1.0497E-02,8.7262E-03,7.3232E-03,6.1652E-03,5.2157E-03,4.4084E-03,3.7761E-03,3.3055E-03,2.9088E-03,2.5730E-03,2.0479E-03,1.6664E-03,1.3831E-03,1.1688E-03,1.0025E-03,5.3347E-04,251.80,5,50
126,0041,"Gazli, USSR",1976,Karakyr,260,9201,6.80,267,58,90,2,40.4650,63.4620,18.2,,12.81,22.26,3.92,,13.03,5.46,-3.92,259.59,40.35,63.47,GAZLI\GAZ000.AT2,GAZLI\GAZ090.AT2,GAZLI\GAZ-UP.AT2,0,90,0.163,0.250,0.250,7.0178E-01,6.4769E+01,2.4080E+01,7.6157E-01,9.3432E-01,1.0353E+00,1.2182E+00,1.4611E+00,1.4607E+00,1.4770E+00,1.5185E+00,1.5343E+00,1.3083E+00,1.5100E+00,1.7084E+00,1.6921E+00,1.6836E+00,1.6044E+00,1.6982E+00,1.8525E+00,1.8472E+00,1.9774E+00,2.2688E+00,2.3002E+00,2.1479E+00,1.6129E+00,1.5550E+00,1.6357E+00,1.5226E+00,1.6736E+00,1.6830E+00,1.4703E+00,1.4127E+00,1.5343E+00,1.4764E+00,1.2882E+00,1.4824E+00,1.5842E+00,1.4079E+00,1.3557E+00,1.2335E+00,1.0387E+00,1.0116E+00,1.0660E+00,1.0870E+00,1.2180E+00,1.2919E+00,1.2689E+00,1.2127E+00,1.1505E+00,1.2488E+00,1.3046E+00,1.3085E+00,1.3463E+00,1.1943E+00,1.0540E+00,1.0369E+00,1.0169E+00,9.9814E-01,1.1559E+00,1.1893E+00,9.9651E-01,8.4464E-01,8.8153E-01,1.0284E+00,9.4493E-01,8.5551E-01,7.1804E-01,6.8528E-01,6.3074E-01,6.3253E-01,6.5553E-01,4.6086E-01,3.7469E-01,4.0366E-01,4.5486E-01,4.8340E-01,4.7408E-01,4.3454E-01,3.7096E-01,2.9914E-01,1.9979E-01,1.8669E-01,1.8709E-01,1.8068E-01,1.5920E-01,1.6348E-01,1.7578E-01,1.7772E-01,1.7845E-01,1.7932E-01,1.7719E-01,1.7344E-01,1.6094E-01,1.4788E-01,1.3341E-01,1.1848E-01,1.0501E-01,7.6051E-02,5.8639E-02,4.7180E-02,3.7999E-02,3.1771E-02,2.6337E-02,2.1777E-02,1.8561E-02,1.6138E-02,1.4123E-02,1.0968E-02,8.7000E-03,7.0471E-03,5.8263E-03,4.8993E-03,2.4993E-03,267.00,5,50
127,0042,"Fruili, Italy-03",1976,Buia,257,8023,5.50,233,16,75,2,46.3000,13.2300,6,,13.83,15.08,10.56,,14.02,11.98,2.85,310.68,46.222,13.09,FRIULI\BUI-NS.AT2,FRIULI\BUI-WE.AT2,FRIULI\BUI-UP.AT2,0,270,0.500,0.313,0.500,4.5916E-02,2.8466E+00,2.6546E-01,4.6041E-02,4.6380E-02,4.6651E-02,4.6759E-02,4.7309E-02,4.7311E-02,4.7290E-02,4.8234E-02,4.8814E-02,4.9913E-02,5.1972E-02,5.2668E-02,5.3018E-02,5.3514E-02,5.4470E-02,5.4734E-02,6.1354E-02,6.3600E-02,6.3949E-02,6.3704E-02,6.0938E-02,6.4294E-02,7.1109E-02,7.4564E-02,7.9128E-02,8.4707E-02,7.9043E-02,7.9501E-02,7.4087E-02,8.5191E-02,8.8378E-02,9.2293E-02,9.6218E-02,1.0231E-01,1.1765E-01,1.3938E-01,1.3943E-01,1.2700E-01,1.0338E-01,1.0340E-01,1.0864E-01,1.1372E-01,1.0449E-01,9.5395E-02,8.4725E-02,6.7892E-02,7.2083E-02,7.5959E-02,8.0980E-02,8.7396E-02,8.9797E-02,8.7917E-02,8.4077E-02,8.3113E-02,7.9847E-02,7.0432E-02,6.6800E-02,5.9737E-02,5.8750E-02,6.5647E-02,6.9381E-02,7.0167E-02,5.9507E-02,4.3492E-02,4.1009E-02,3.9937E-02,3.3874E-02,2.5639E-02,1.8513E-02,1.4280E-02,1.2278E-02,1.3032E-02,1.1842E-02,9.8360E-03,9.1987E-03,7.9298E-03,7.2142E-03,6.2476E-03,5.0744E-03,4.1353E-03,3.6253E-03,3.2937E-03,2.6662E-03,2.0986E-03,1.6445E-03,1.3036E-03,1.1653E-03,1.0708E-03,9.6153E-04,8.5759E-04,7.6553E-04,6.8211E-04,6.1526E-04,5.6093E-04,5.1509E-04,4.2486E-04,3.4679E-04,2.8594E-04,2.4005E-04,2.0886E-04,1.8317E-04,1.6118E-04,1.4267E-04,1.2700E-04,1.1418E-04,9.5164E-05,7.9757E-05,6.7314E-05,5.7369E-05,4.9346E-05,2.7457E-05,232.96,5,50
128,0042,"Fruili, Italy-03",1976,Forgaria Cornino,255,8014,5.50,233,16,75,2,46.3000,13.2300,6,,19.97,20.85,16.33,,19.68,17.7,7.09,412.37,46.221,12.997,FRIULI\FOC-NS.AT2,FRIULI\FOC-WE.AT2,FRIULI\FOC-UP.AT2,0,270,0.375,0.375,0.375,9.6891E-02,3.7615E+00,2.3006E-01,9.7366E-02,9.9077E-02,9.9949E-02,1.0065E-01,1.0152E-01,1.0192E-01,1.0260E-01,1.0365E-01,1.0404E-01,1.1049E-01,1.1179E-01,1.1318E-01,1.1239E-01,1.1014E-01,1.0921E-01,1.1496E-01,1.1752E-01,1.1682E-01,1.2447E-01,1.3280E-01,1.4077E-01,1.5479E-01,1.6645E-01,1.9522E-01,2.6057E-01,3.2320E-01,3.4988E-01,2.3581E-01,2.4374E-01,2.1750E-01,2.1507E-01,2.2557E-01,2.2230E-01,2.5240E-01,2.7426E-01,2.7788E-01,2.6684E-01,2.4318E-01,2.1595E-01,2.4927E-01,2.5052E-01,2.2875E-01,1.8345E-01,1.7236E-01,1.6209E-01,1.4456E-01,1.6843E-01,1.8409E-01,1.9977E-01,2.1362E-01,1.9607E-01,1.5764E-01,1.2064E-01,1.0741E-01,9.9158E-02,8.5602E-02,7.4870E-02,5.3775E-02,4.3700E-02,3.8305E-02,3.5979E-02,3.2151E-02,2.7079E-02,2.3681E-02,1.9342E-02,1.6156E-02,1.3971E-02,1.2337E-02,8.7947E-03,7.0890E-03,6.1326E-03,5.7245E-03,5.4299E-03,5.3534E-03,4.6790E-03,4.2809E-03,3.8505E-03,3.5759E-03,3.0638E-03,2.5756E-03,2.3788E-03,2.1445E-03,1.7995E-03,1.5136E-03,1.2538E-03,1.0811E-03,9.8401E-04,9.0446E-04,7.9453E-04,7.0701E-04,6.3446E-04,5.7125E-04,5.1700E-04,4.6843E-04,4.2576E-04,3.4217E-04,2.8307E-04,2.3927E-04,2.0318E-04,1.7473E-04,1.5364E-04,1.3604E-04,1.2136E-04,1.0869E-04,9.8042E-05,8.0756E-05,6.7607E-05,5.7333E-05,4.9277E-05,4.2788E-05,2.3772E-05,233,5,50
129,0042,"Fruili, Italy-03",1976,San Rocco,256,8022,5.50,233,16,75,2,46.3000,13.2300,6,,20.01,20.89,16.26,,19.72,17.68,7.72,649.67,46.226,12.993,FRIULI\SRO-NS.AT2,FRIULI\SRO-WE.AT2,FRIULI\SRO-UP.AT2,0,270,0.375,0.500,0.500,5.4682E-02,1.7050E+00,1.2232E-01,5.4884E-02,5.6020E-02,5.6099E-02,5.6900E-02,5.5899E-02,5.6111E-02,5.6958E-02,5.8650E-02,5.9510E-02,5.8335E-02,5.6284E-02,5.8528E-02,5.9482E-02,5.9425E-02,6.2380E-02,6.2042E-02,5.9567E-02,6.3584E-02,7.0799E-02,7.4603E-02,8.0560E-02,8.7520E-02,8.1571E-02,9.5413E-02,1.1412E-01,1.2128E-01,1.2315E-01,1.1427E-01,1.0316E-01,1.2962E-01,1.3697E-01,1.5266E-01,1.7393E-01,1.7751E-01,1.6349E-01,1.5192E-01,1.4893E-01,1.4558E-01,1.1865E-01,7.9875E-02,6.3635E-02,5.4901E-02,4.4281E-02,4.1842E-02,4.0782E-02,4.0857E-02,4.0698E-02,3.9358E-02,3.9914E-02,3.9840E-02,3.7954E-02,3.5427E-02,3.2210E-02,3.0449E-02,2.8605E-02,2.7087E-02,2.5415E-02,2.2650E-02,1.7101E-02,1.8148E-02,1.7510E-02,1.5830E-02,1.9736E-02,1.7802E-02,1.3848E-02,1.2936E-02,1.3509E-02,1.3985E-02,9.5282E-03,9.0209E-03,8.3892E-03,7.2446E-03,6.7046E-03,6.1747E-03,5.4304E-03,4.9520E-03,4.2186E-03,3.4230E-03,2.1986E-03,1.6936E-03,1.5251E-03,1.4146E-03,1.2045E-03,1.0847E-03,9.1145E-04,7.6720E-04,7.1179E-04,6.6031E-04,6.4518E-04,5.9176E-04,5.1005E-04,4.5198E-04,3.9666E-04,3.3848E-04,2.9533E-04,2.3223E-04,1.8013E-04,1.4008E-04,1.1301E-04,9.6996E-05,8.3878E-05,7.3075E-05,6.4021E-05,5.6567E-05,5.0227E-05,4.1502E-05,3.5631E-05,3.0739E-05,2.6655E-05,2.3313E-05,1.3023E-05,233,5,50
130,0043,"Friuli, Italy-02",1976,Buia,257,8023,5.91,215.1,18.9,70,2,46.3750,13.0670,3.69,,17.12,17.51,10.99,,14.88,11.03,-3.4,310.68,46.222,13.09,FRIULI.B\B-BUI000.AT2,FRIULI.B\B-BUI270.AT2,FRIULI.B\B-BUI-UP.AT2,0,270,0.250,0.250,0.250,1.1053E-01,1.1371E+01,2.1560E+00,1.1061E-01,1.1158E-01,1.1194E-01,1.1331E-01,1.1345E-01,1.1462E-01,1.1557E-01,1.1665E-01,1.1619E-01,1.1498E-01,1.1851E-01,1.2190E-01,1.2259E-01,1.2313E-01,1.2167E-01,1.2044E-01,1.3145E-01,1.4188E-01,1.3642E-01,1.4712E-01,1.6864E-01,1.6582E-01,1.4503E-01,1.4862E-01,1.5020E-01,1.6366E-01,1.6428E-01,1.6619E-01,1.7493E-01,1.8018E-01,1.8294E-01,1.7914E-01,1.8232E-01,2.1196E-01,2.4124E-01,2.4720E-01,2.8376E-01,2.8431E-01,2.1058E-01,2.0311E-01,2.1783E-01,2.3926E-01,2.5911E-01,2.5903E-01,2.5140E-01,2.3060E-01,2.2024E-01,2.1652E-01,2.1262E-01,2.1581E-01,2.1845E-01,2.0465E-01,1.8813E-01,1.7689E-01,1.7878E-01,1.9274E-01,1.9771E-01,2.2409E-01,2.6951E-01,2.7821E-01,2.7477E-01,2.6663E-01,2.5740E-01,2.3517E-01,2.0332E-01,1.7083E-01,1.6236E-01,1.4985E-01,1.0870E-01,1.0281E-01,9.3333E-02,9.1576E-02,9.9565E-02,9.7488E-02,9.3709E-02,8.3488E-02,7.7393E-02,6.6605E-02,4.5326E-02,3.6285E-02,3.2937E-02,2.9926E-02,2.5393E-02,2.1423E-02,1.9439E-02,1.8425E-02,1.7180E-02,1.6038E-02,1.4045E-02,1.2355E-02,1.0750E-02,9.1303E-03,7.7778E-03,6.4409E-03,5.6274E-03,4.3849E-03,3.5393E-03,2.9005E-03,2.4111E-03,2.0573E-03,1.7795E-03,1.5498E-03,1.3604E-03,1.2021E-03,1.0684E-03,8.5903E-04,7.0468E-04,5.8857E-04,4.9852E-04,4.2753E-04,2.2868E-04,215,5,50
131,0043,"Friuli, Italy-02",1976,Codroipo,251,8004,5.91,215.1,18.9,70,2,46.3750,13.0670,3.69,,46.73,46.88,41.37,,45.1,41.39,-13.52,249.28,45.959,12.984,FRIULI.B\B-COD000.AT2,FRIULI.B\B-COD270.AT2,FRIULI.B\B-COD-UP.AT2,0,270,0.250,0.250,0.250,2.4401E-02,2.8458E+00,1.1212E+00,2.4438E-02,2.5042E-02,2.4900E-02,2.5541E-02,2.5869E-02,2.5876E-02,2.6083E-02,2.6532E-02,2.6587E-02,2.6464E-02,2.6721E-02,2.7280E-02,2.7711E-02,2.7985E-02,2.7692E-02,2.7351E-02,3.0501E-02,3.5264E-02,3.6653E-02,3.9276E-02,4.2825E-02,4.4382E-02,3.9647E-02,4.2438E-02,4.4059E-02,5.0111E-02,5.2606E-02,5.7487E-02,6.6949E-02,6.2123E-02,6.5792E-02,7.1948E-02,7.0016E-02,5.3824E-02,5.0716E-02,5.5020E-02,5.1133E-02,4.6859E-02,5.8815E-02,6.7448E-02,7.2668E-02,7.2850E-02,7.6477E-02,7.7299E-02,7.6054E-02,6.7711E-02,6.6709E-02,6.2372E-02,5.7749E-02,4.8284E-02,4.3476E-02,4.2244E-02,4.3346E-02,4.2917E-02,4.2683E-02,4.4003E-02,3.7732E-02,3.7979E-02,4.0619E-02,3.7057E-02,3.8759E-02,4.1544E-02,4.1193E-02,4.5467E-02,4.9461E-02,4.6856E-02,4.6348E-02,5.1914E-02,4.8790E-02,4.5848E-02,3.5737E-02,3.0943E-02,2.6431E-02,2.4163E-02,2.5498E-02,2.4328E-02,2.1872E-02,2.2880E-02,2.1375E-02,2.0322E-02,2.0003E-02,1.9232E-02,1.5084E-02,1.4083E-02,1.3634E-02,1.3153E-02,1.2521E-02,1.1309E-02,9.7158E-03,9.2604E-03,8.8062E-03,8.4076E-03,7.3415E-03,6.0745E-03,5.3275E-03,3.9543E-03,3.1259E-03,2.3183E-03,1.7322E-03,1.4158E-03,1.1571E-03,9.9854E-04,8.5467E-04,7.2798E-04,6.1924E-04,4.7798E-04,4.4445E-04,3.6215E-04,2.9485E-04,2.4847E-04,1.2652E-04,215,5,50
