RecId,EqId,EqName,Year,Station,StationSeqNo,StationId,Magnitude,Strike,Dip,Rake,Mechanism,HypoCtrLatitude ,HypoCtrLongitude,HypocenterDepth,Fault Name,EpiD,HypD,JBD,CRD,RmsD,ClstD,Rx,Vs30,StationLatitude,StationLongitude,FileNameHorizontal1,FileNameHorizontal2,FileNameVertical,H1Azimith,H2Azimuth,LowestUsableFreqH1,LowestUsableFreqH2,Lowest Usable Freq,PGA,PGV,PGD,T0.010S,T0.020S,T0.022S,T0.025S,T0.029S,T0.030S,T0.032S,T0.035S,T0.036S,T0.040S,T0.042S,T0.044S,T0.045S,T0.046S,T0.048S,T0.050S,T0.055S,T0.060S,T0.065S,T0.067S,T0.070S,T0.075S,T0.080S,T0.085S,T0.090S,T0.095S,T0.100S,T0.110S,T0.120S,T0.130S,T0.133S,T0.140S,T0.150S,T0.160S,T0.170S,T0.180S,T0.190S,T0.200S,T0.220S,T0.240S,T0.250S,T0.260S,T0.280S,T0.290S,T0.300S,T0.320S,T0.340S,T0.350S,T0.360S,T0.380S,T0.400S,T0.420S,T0.440S,T0.450S,T0.460S,T0.480S,T0.500S,T0.550S,T0.600S,T0.650S,T0.667S,T0.700S,T0.750S,T0.800S,T0.850S,T0.900S,T0.950S,T1.000S,T1.100S,T1.200S,T1.300S,T1.400S,T1.500S,T1.600S,T1.700S,T1.800S,T1.900S,T2.000S,T2.200S,T2.400S,T2.500S,T2.600S,T2.800S,T3.000S,T3.200S,T3.400S,T3.500S,T3.600S,T3.800S,T4.000S,T4.200S,T4.400S,T4.600S,T4.800S,T5.000S,T5.500S,T6.000S,T6.500S,T7.000S,T7.500S,T8.000S,T8.500S,T9.000S,T9.500S,T10.000S,T11.000S,T12.000S,T13.000S,T14.000S,T15.000S,T20.000S,AveStrike ,Damping,RotD
79,0030,San Fernando,1971,Pasadena - CIT Athenaeum,499,80053,6.61,288,50,83,2,34.4400,-118.4100,13,Sierra Madre-San Fernando,42.75,44.69,25.47,,37.25,25.47,-11.81,415.13,34.139,-118.121,SFERN\PAS000.AT2,SFERN\PAS090.AT2,SFERN\PASDWN.AT2,0,90,0.288,0.375,0.375,1.0575E-01,9.8125E+00,2.3639E+00,1.0681E-01,1.0711E-01,1.0745E-01,1.0817E-01,1.1078E-01,1.1116E-01,1.1123E-01,1.1095E-01,1.1248E-01,1.2120E-01,1.1968E-01,1.1830E-01,1.2267E-01,1.2822E-01,1.3026E-01,1.2211E-01,1.2339E-01,1.2936E-01,1.2931E-01,1.3599E-01,1.3946E-01,1.6666E-01,1.5338E-01,1.4853E-01,1.6958E-01,1.8050E-01,1.8778E-01,2.6365E-01,2.5809E-01,2.3671E-01,2.3906E-01,2.4129E-01,1.9558E-01,1.7815E-01,1.8168E-01,2.0003E-01,2.2567E-01,2.5738E-01,3.1002E-01,2.6772E-01,2.5466E-01,2.5268E-01,3.4509E-01,3.4931E-01,3.4757E-01,3.2105E-01,3.0505E-01,3.1656E-01,3.1368E-01,2.7170E-01,3.1603E-01,3.6775E-01,3.4494E-01,3.2058E-01,2.9008E-01,2.3835E-01,2.2495E-01,2.0331E-01,1.8571E-01,1.7037E-01,1.7061E-01,1.5069E-01,1.4683E-01,1.9653E-01,2.1838E-01,2.0297E-01,1.8801E-01,1.6371E-01,1.3558E-01,1.1652E-01,1.0017E-01,8.1661E-02,5.7358E-02,5.7841E-02,5.4921E-02,6.2014E-02,6.2827E-02,5.8014E-02,5.3313E-02,4.9016E-02,4.4549E-02,4.6403E-02,4.2530E-02,2.8011E-02,2.3564E-02,2.0589E-02,1.8640E-02,1.6767E-02,1.3545E-02,1.1145E-02,1.0274E-02,9.6744E-03,9.1143E-03,8.3529E-03,7.5194E-03,6.0796E-03,3.9931E-03,3.1327E-03,2.4086E-03,1.8873E-03,1.6704E-03,1.5079E-03,1.3371E-03,1.1691E-03,1.0902E-03,9.0224E-04,7.6507E-04,6.4963E-04,5.5435E-04,4.7623E-04,2.4985E-04,285.00,5,50
80,0030,San Fernando,1971,Pasadena - Old Seismo Lab,83,266,6.61,288,50,83,2,34.4400,-118.4100,13,Sierra Madre-San Fernando,39.17,41.27,21.5,,33.39,21.5,-11.98,969.07,34.1486,-118.171,SFERN\PSL180.AT2,SFERN\PSL270.AT2,SFERN\PSLDWN.AT2,180,270,0.625,0.625,0.625,1.4498E-01,9.8570E+00,1.0524E+00,1.4680E-01,1.4519E-01,1.5034E-01,1.5245E-01,1.4544E-01,1.4601E-01,1.4675E-01,1.4960E-01,1.5171E-01,1.5252E-01,1.5511E-01,1.5930E-01,1.6053E-01,1.6016E-01,1.5570E-01,1.5685E-01,1.6412E-01,1.7286E-01,1.8284E-01,1.8490E-01,1.7840E-01,1.9125E-01,2.3442E-01,2.3164E-01,2.5811E-01,2.9355E-01,3.1413E-01,3.6124E-01,3.3166E-01,3.7327E-01,3.8947E-01,4.0823E-01,4.0972E-01,3.7184E-01,3.5097E-01,3.7450E-01,4.0850E-01,4.3478E-01,4.1467E-01,4.9432E-01,5.4394E-01,5.6499E-01,4.3247E-01,3.9368E-01,3.6168E-01,4.2559E-01,4.0450E-01,3.6848E-01,3.4077E-01,3.3981E-01,2.9973E-01,2.4427E-01,2.2243E-01,2.1835E-01,2.1418E-01,1.8487E-01,1.6622E-01,1.4202E-01,1.5536E-01,1.3330E-01,1.2904E-01,1.4867E-01,1.6505E-01,1.6539E-01,1.5229E-01,1.3894E-01,1.2737E-01,1.1729E-01,1.0034E-01,7.7953E-02,5.9373E-02,4.6320E-02,3.8416E-02,3.2077E-02,2.7687E-02,2.5321E-02,2.3906E-02,2.2618E-02,1.6588E-02,1.2379E-02,1.0759E-02,9.4570E-03,7.3862E-03,5.9707E-03,4.9924E-03,4.2355E-03,3.9256E-03,3.6530E-03,3.1985E-03,2.8364E-03,2.5408E-03,2.2922E-03,2.0822E-03,1.9025E-03,1.7437E-03,1.4225E-03,1.1792E-03,9.9219E-04,8.5709E-04,7.4636E-04,6.5452E-04,5.7766E-04,5.1307E-04,4.5798E-04,4.1089E-04,3.3543E-04,2.7844E-04,2.3454E-04,2.0039E-04,1.7459E-04,9.8892E-05,285.00,5,50
81,0030,San Fernando,1971,Pearblossom Pump,84,269,6.61,288,50,83,2,34.4400,-118.4100,13,Sierra Madre-San Fernando,45.41,47.23,35.54,,46.2,38.97,29.84,529.09,34.5083,-117.922,SFERN\PPP000.AT2,SFERN\PPP270.AT2,SFERN\PPPDWN.AT2,0,270,0.250,0.250,0.250,1.3125E-01,4.8808E+00,1.0875E+00,1.3365E-01,1.3432E-01,1.3946E-01,1.5159E-01,1.5430E-01,1.5571E-01,1.5928E-01,1.5677E-01,1.6418E-01,1.6786E-01,1.6498E-01,1.6994E-01,1.7052E-01,1.6640E-01,1.6251E-01,1.6762E-01,1.7673E-01,2.4231E-01,2.2686E-01,2.2631E-01,2.3938E-01,2.7812E-01,2.9010E-01,2.7712E-01,2.6815E-01,3.0015E-01,3.2432E-01,3.0831E-01,3.5628E-01,4.4371E-01,4.6879E-01,4.6685E-01,4.3683E-01,4.5398E-01,4.2698E-01,3.5228E-01,2.9402E-01,2.6107E-01,2.2053E-01,2.2280E-01,2.2802E-01,2.0139E-01,1.4339E-01,1.4805E-01,1.4940E-01,1.7623E-01,2.0476E-01,1.9761E-01,1.7334E-01,1.8270E-01,1.8542E-01,1.6098E-01,1.4624E-01,1.4636E-01,1.3667E-01,1.1696E-01,1.2441E-01,1.0342E-01,7.1338E-02,6.5174E-02,6.1721E-02,5.9433E-02,4.7843E-02,5.4724E-02,5.3390E-02,4.7839E-02,3.8612E-02,4.0496E-02,4.1125E-02,4.3076E-02,3.2746E-02,2.7546E-02,3.0709E-02,3.1498E-02,2.9988E-02,2.5161E-02,1.9317E-02,1.6997E-02,1.4688E-02,1.6915E-02,1.6094E-02,1.5953E-02,1.4788E-02,1.2721E-02,1.0410E-02,9.3330E-03,9.3298E-03,9.3571E-03,8.8123E-03,7.8247E-03,6.9722E-03,6.0309E-03,5.3393E-03,4.5278E-03,3.9783E-03,2.9900E-03,2.3252E-03,1.8683E-03,1.5773E-03,1.3677E-03,1.1651E-03,1.0015E-03,8.5449E-04,7.8921E-04,7.2029E-04,5.7340E-04,4.7090E-04,4.0951E-04,3.4627E-04,2.9388E-04,1.5094E-04,290.00,5,50
82,0030,San Fernando,1971,Port Hueneme,85,272,6.61,288,50,83,2,34.4400,-118.4100,13,Sierra Madre-San Fernando,80.21,81.25,68.84,,79.31,68.84,-36.79,248.98,34.145,-119.206,SFERN\PHN180.AT2,SFERN\PHN270.AT2,SFERN\PHN-UP.AT2,180,270,0.063,0.063,0.063,2.6619E-02,5.9911E+00,4.5430E+00,2.6886E-02,2.6849E-02,2.6808E-02,2.7101E-02,2.8494E-02,2.8430E-02,2.9867E-02,2.9610E-02,2.9681E-02,2.9183E-02,2.9655E-02,2.9913E-02,2.9549E-02,2.9150E-02,2.8540E-02,2.8707E-02,3.0700E-02,3.0091E-02,2.8801E-02,2.9220E-02,2.8735E-02,2.9165E-02,3.2638E-02,3.4108E-02,3.4299E-02,3.6637E-02,3.8196E-02,4.1976E-02,4.4010E-02,4.5752E-02,4.5607E-02,4.7277E-02,4.7841E-02,5.2569E-02,5.3207E-02,5.3836E-02,5.5112E-02,5.8143E-02,5.9113E-02,6.8943E-02,7.8222E-02,8.9292E-02,1.0038E-01,1.0592E-01,1.0818E-01,1.0727E-01,1.0263E-01,1.0043E-01,9.5113E-02,8.0620E-02,7.0954E-02,5.8950E-02,4.8231E-02,4.5204E-02,4.6692E-02,4.8185E-02,4.8080E-02,4.6445E-02,5.5891E-02,5.9350E-02,5.9955E-02,5.7472E-02,6.1376E-02,7.2877E-02,6.3435E-02,5.6536E-02,6.0433E-02,6.1152E-02,5.5052E-02,4.9801E-02,4.0949E-02,4.2595E-02,3.7847E-02,3.9065E-02,4.4522E-02,5.3626E-02,5.2028E-02,4.9178E-02,4.8703E-02,5.2513E-02,4.8639E-02,4.3103E-02,3.7921E-02,3.3022E-02,2.7075E-02,3.1507E-02,3.0760E-02,2.9200E-02,2.9443E-02,2.7132E-02,2.1893E-02,1.8925E-02,1.5632E-02,1.4233E-02,1.6782E-02,1.7091E-02,1.4251E-02,1.2343E-02,9.8628E-03,8.8392E-03,7.2295E-03,6.0013E-03,5.0027E-03,4.3430E-03,4.0345E-03,3.1568E-03,2.4743E-03,2.0788E-03,1.6436E-03,1.4153E-03,6.3288E-04,285.00,5,50
83,0030,San Fernando,1971,Puddingstone Dam (Abutment),87,278,6.61,288,50,83,2,34.4400,-118.4100,13,Sierra Madre-San Fernando,67.63,68.86,52.64,,63.33,52.64,-9.37,421.44,34.091,-117.808,SFERN\PUD055.AT2,SFERN\PUD325.AT2,SFERN\PUDDWN.AT2,55,325,0.125,0.250,0.250,5.9764E-02,4.3734E+00,1.5492E+00,6.0825E-02,6.1273E-02,6.1279E-02,6.2652E-02,6.6392E-02,6.5284E-02,7.0770E-02,6.8576E-02,7.0644E-02,7.0469E-02,6.9487E-02,6.4956E-02,6.3298E-02,6.3046E-02,6.3471E-02,6.4600E-02,6.7348E-02,6.7153E-02,6.7300E-02,6.8954E-02,7.0854E-02,8.0384E-02,9.3610E-02,1.0007E-01,1.1030E-01,1.1640E-01,1.2761E-01,1.3167E-01,1.4849E-01,1.6469E-01,1.5887E-01,1.6795E-01,1.5972E-01,1.7878E-01,1.7864E-01,1.6151E-01,1.8847E-01,2.0898E-01,1.8965E-01,1.3896E-01,1.1424E-01,9.5584E-02,9.5271E-02,9.0197E-02,9.6656E-02,1.0365E-01,1.0867E-01,1.0992E-01,1.0869E-01,1.0724E-01,1.1847E-01,1.2833E-01,1.4213E-01,1.4233E-01,1.3477E-01,1.1964E-01,1.1375E-01,9.1886E-02,1.0546E-01,1.1226E-01,1.1537E-01,1.1396E-01,1.0433E-01,9.4246E-02,8.4618E-02,6.8588E-02,5.3553E-02,4.0048E-02,3.1052E-02,3.1383E-02,2.5697E-02,2.9482E-02,2.7464E-02,2.0414E-02,1.5674E-02,1.2335E-02,1.1800E-02,1.2419E-02,1.0729E-02,9.6015E-03,9.2458E-03,8.0771E-03,8.7880E-03,9.0610E-03,9.9464E-03,9.5267E-03,8.9959E-03,8.2897E-03,6.9144E-03,6.1430E-03,6.0615E-03,6.0373E-03,6.1819E-03,6.1888E-03,5.8521E-03,5.9568E-03,5.2455E-03,4.4770E-03,3.8702E-03,3.3062E-03,2.6687E-03,2.2613E-03,1.9089E-03,1.6015E-03,1.3424E-03,9.5481E-04,7.2730E-04,5.8868E-04,4.8945E-04,4.1186E-04,2.0114E-04,285.00,5,50
87,0030,San Fernando,1971,Santa Anita Dam,68,104,6.61,288,50,83,2,34.4400,-118.4100,13,Sierra Madre-San Fernando,45.86,47.67,30.7,,41.37,30.7,-4.38,667.13,34.185,-118.018,SFERN\SAD003.AT2,SFERN\SAD273.AT2,SFERN\SADDWN.AT2,3,273,0.375,0.375,0.375,1.8648E-01,4.9529E+00,8.2718E-01,1.9119E-01,1.8672E-01,1.9500E-01,2.0551E-01,2.3002E-01,2.3299E-01,2.5218E-01,2.2174E-01,2.2682E-01,2.4424E-01,2.4310E-01,2.4333E-01,2.4033E-01,2.3808E-01,2.4770E-01,2.5899E-01,2.7883E-01,2.9464E-01,2.9839E-01,3.0714E-01,3.0723E-01,3.1563E-01,3.2573E-01,3.6672E-01,3.8305E-01,4.1147E-01,4.3901E-01,4.9028E-01,5.9258E-01,7.0716E-01,6.9984E-01,6.6615E-01,5.6169E-01,4.2551E-01,4.4578E-01,4.8556E-01,5.5442E-01,5.9166E-01,3.7907E-01,3.4849E-01,2.8364E-01,2.4135E-01,2.1832E-01,2.0771E-01,2.0024E-01,2.0658E-01,1.9490E-01,1.7433E-01,1.5789E-01,1.3537E-01,1.3060E-01,1.0769E-01,8.0408E-02,7.7289E-02,8.2205E-02,8.0945E-02,7.4567E-02,8.4527E-02,7.8602E-02,6.0265E-02,5.9272E-02,6.0533E-02,5.9818E-02,5.2917E-02,4.4718E-02,3.7698E-02,3.3900E-02,3.0805E-02,2.9324E-02,2.6285E-02,2.4554E-02,2.4219E-02,2.3623E-02,2.2776E-02,1.8035E-02,1.6753E-02,1.5148E-02,1.2802E-02,1.0925E-02,1.0368E-02,1.0842E-02,1.1194E-02,1.1486E-02,1.1139E-02,1.1585E-02,1.0081E-02,9.0001E-03,7.9472E-03,5.8888E-03,4.3224E-03,3.2561E-03,2.8679E-03,2.6164E-03,2.5373E-03,2.3559E-03,1.8102E-03,1.4086E-03,1.0861E-03,9.0193E-04,7.2023E-04,5.8001E-04,5.1345E-04,4.7664E-04,4.2485E-04,4.0023E-04,3.4853E-04,3.0047E-04,2.5201E-04,2.0620E-04,1.6709E-04,9.3786E-05,285.00,5,50
88,0030,San Fernando,1971,Santa Felita Dam (Outlet),93,285,6.61,288,50,83,2,34.4400,-118.4100,13,Sierra Madre-San Fernando,31.55,34.13,24.69,,34.15,24.87,-1.33,389,34.46,-118.753,SFERN\FSD172.AT2,SFERN\FSD262.AT2,SFERN\FSD-UP.AT2,172,262,0.125,0.125,0.125,1.5486E-01,8.8971E+00,6.8376E+00,1.5543E-01,1.5877E-01,1.5963E-01,1.6144E-01,1.6411E-01,1.6454E-01,1.6450E-01,1.6573E-01,1.6735E-01,1.7784E-01,1.8072E-01,1.8475E-01,1.8958E-01,1.9280E-01,1.9764E-01,2.0905E-01,2.2298E-01,2.2235E-01,2.3697E-01,2.4247E-01,2.5000E-01,2.7224E-01,3.2268E-01,3.6660E-01,4.4369E-01,5.5967E-01,6.9706E-01,8.2714E-01,5.9529E-01,4.8504E-01,4.9778E-01,5.0989E-01,4.0785E-01,3.0518E-01,2.6362E-01,2.5242E-01,2.5317E-01,2.4739E-01,1.8102E-01,1.5370E-01,1.6446E-01,1.6947E-01,1.6819E-01,1.6449E-01,1.7672E-01,1.6005E-01,1.7436E-01,2.0020E-01,2.0890E-01,1.8478E-01,1.5775E-01,1.4934E-01,1.4195E-01,1.4662E-01,1.4419E-01,1.3485E-01,1.3896E-01,1.3034E-01,1.2561E-01,1.1963E-01,1.1448E-01,1.0850E-01,1.0317E-01,9.4857E-02,1.0627E-01,1.3087E-01,1.2982E-01,1.2137E-01,9.0651E-02,7.8056E-02,6.9051E-02,5.8377E-02,4.8752E-02,4.3018E-02,4.0562E-02,3.5625E-02,3.5200E-02,3.3640E-02,3.9385E-02,4.1870E-02,4.5024E-02,4.2597E-02,3.3706E-02,3.0589E-02,4.4913E-02,4.5886E-02,4.3761E-02,4.0602E-02,3.7688E-02,3.5462E-02,3.1087E-02,2.9915E-02,2.8749E-02,2.7562E-02,2.5427E-02,2.0717E-02,1.5783E-02,1.3461E-02,1.1187E-02,1.0534E-02,8.9144E-03,7.6575E-03,6.9301E-03,5.8038E-03,5.4871E-03,4.1322E-03,3.6774E-03,3.6685E-03,3.7618E-03,3.5772E-03,1.9255E-03,290.00,5,50
89,0030,San Fernando,1971,Tehachapi Pump,134,1027,6.61,288,50,83,2,34.4400,-118.4100,13,Sierra Madre-San Fernando,67.62,68.86,61.75,,73.59,63.79,46.82,669.48,34.9417,-118.827,SFERN\TEH090.AT2,SFERN\TEH180.AT2,SFERN\TEHDWN.AT2,90,180,0.250,0.250,0.250,3.9338E-02,1.6620E+00,3.8331E-01,4.0159E-02,4.3519E-02,4.3184E-02,4.5531E-02,5.1321E-02,5.0276E-02,4.8149E-02,5.2496E-02,5.6428E-02,6.3302E-02,6.7582E-02,6.7544E-02,6.7433E-02,6.9199E-02,6.7994E-02,6.2434E-02,6.8352E-02,7.6554E-02,8.9912E-02,9.8282E-02,1.0287E-01,1.0359E-01,1.0125E-01,1.0855E-01,1.1979E-01,1.2406E-01,1.2134E-01,1.1376E-01,1.0091E-01,9.5167E-02,9.1156E-02,9.1451E-02,9.1689E-02,1.0998E-01,1.1062E-01,1.1446E-01,1.1770E-01,1.0106E-01,7.4755E-02,5.6660E-02,5.4261E-02,5.5412E-02,6.3689E-02,7.2448E-02,7.6773E-02,7.4889E-02,6.2976E-02,5.8309E-02,5.3633E-02,4.5463E-02,4.8172E-02,4.6890E-02,4.3279E-02,3.8658E-02,3.5879E-02,3.7599E-02,3.7377E-02,3.2619E-02,2.4752E-02,1.8300E-02,1.6680E-02,1.3306E-02,1.1242E-02,9.2496E-03,8.1281E-03,7.7630E-03,7.7401E-03,7.4073E-03,5.8523E-03,5.1156E-03,5.4186E-03,6.0892E-03,5.4406E-03,4.7394E-03,4.4549E-03,4.8193E-03,5.0469E-03,5.1617E-03,5.3152E-03,4.4489E-03,4.2727E-03,4.1304E-03,3.8737E-03,3.7510E-03,3.6984E-03,3.2943E-03,3.2122E-03,3.1101E-03,2.8063E-03,2.3812E-03,2.0549E-03,1.8421E-03,1.6128E-03,1.3774E-03,1.2205E-03,9.8744E-04,7.9853E-04,6.3838E-04,5.0855E-04,4.1916E-04,3.5597E-04,3.0504E-04,2.6347E-04,2.2926E-04,2.0086E-04,1.5724E-04,1.2597E-04,1.0293E-04,8.5547E-05,7.2789E-05,3.8724E-05,290.00,5,50
91,0030,San Fernando,1971,Upland - San Antonio Dam,95,287,6.61,288,50,83,2,34.4400,-118.4100,13,Sierra Madre-San Fernando,74.64,75.76,61.72,,71.23,61.73,0.74,487.23,34.155,-117.675,SFERN\SOD015.AT2,SFERN\SOD285.AT2,SFERN\SODDWN.AT2,15,285,0.375,0.288,0.375,6.4655E-02,3.3346E+00,4.6403E-01,6.5358E-02,6.5056E-02,6.5115E-02,6.6223E-02,6.6678E-02,6.6923E-02,6.6531E-02,6.8172E-02,6.8579E-02,6.7029E-02,6.7623E-02,6.7772E-02,6.6916E-02,6.6683E-02,6.8872E-02,7.1017E-02,7.9729E-02,8.4031E-02,9.8217E-02,9.8544E-02,9.9534E-02,1.0295E-01,1.1105E-01,1.1789E-01,1.3009E-01,1.4031E-01,1.4149E-01,1.9641E-01,2.2747E-01,1.7939E-01,1.7341E-01,1.6128E-01,1.3855E-01,1.4071E-01,1.3651E-01,1.4720E-01,1.8854E-01,2.2567E-01,2.3921E-01,2.4973E-01,2.4362E-01,2.1368E-01,1.8167E-01,1.9812E-01,2.0108E-01,2.0175E-01,1.9919E-01,2.0957E-01,2.0406E-01,1.8926E-01,1.8614E-01,1.7475E-01,1.6932E-01,1.6511E-01,1.5522E-01,1.2926E-01,1.0824E-01,6.7841E-02,6.1112E-02,6.0588E-02,5.6363E-02,5.1830E-02,4.4241E-02,3.9319E-02,3.4641E-02,3.9931E-02,3.3848E-02,2.8453E-02,2.2611E-02,2.1219E-02,2.0695E-02,2.0936E-02,1.6835E-02,1.2853E-02,1.0192E-02,8.8556E-03,7.8409E-03,7.9060E-03,7.7703E-03,6.4036E-03,5.8829E-03,5.2695E-03,5.8119E-03,5.3259E-03,5.8942E-03,5.4126E-03,4.9131E-03,4.3974E-03,3.7152E-03,2.9371E-03,2.2276E-03,1.6801E-03,1.4081E-03,1.2986E-03,1.1607E-03,9.9384E-04,8.7246E-04,7.3200E-04,5.2688E-04,4.2283E-04,3.5686E-04,2.9108E-04,2.7680E-04,2.5505E-04,2.2514E-04,1.7093E-04,1.4354E-04,1.1831E-04,1.0119E-04,8.3553E-05,5.1584E-05,285.00,5,50
92,0030,San Fernando,1971,Wheeler Ridge - Ground,149,1102,6.61,288,50,83,2,34.4400,-118.4100,13,Sierra Madre-San Fernando,74.03,75.16,68.38,,80.21,70.23,56.87,347.67,35.027,-118.791,SFERN\WRP090.AT2,SFERN\WRP180.AT2,SFERN\WRP-UP.AT2,90,180,0.125,0.125,0.125,2.8018E-02,2.0252E+00,2.2169E+00,2.8092E-02,2.8549E-02,2.8657E-02,2.8828E-02,2.9545E-02,2.9872E-02,3.0103E-02,3.0733E-02,3.1428E-02,3.3713E-02,3.8407E-02,4.0748E-02,4.1554E-02,4.2352E-02,4.1594E-02,3.9302E-02,4.0207E-02,5.6397E-02,6.0544E-02,6.6079E-02,6.6785E-02,6.8455E-02,7.2558E-02,8.9819E-02,9.0056E-02,9.0386E-02,8.8028E-02,7.2371E-02,6.4663E-02,6.7872E-02,7.0727E-02,7.6775E-02,6.5453E-02,7.4289E-02,7.8814E-02,7.2458E-02,6.9892E-02,6.7805E-02,5.5702E-02,5.5939E-02,6.6017E-02,7.4460E-02,8.3194E-02,8.3595E-02,8.0718E-02,6.7966E-02,5.1982E-02,4.4893E-02,3.9538E-02,3.4283E-02,3.2377E-02,3.0719E-02,2.6201E-02,2.3445E-02,2.2778E-02,2.0872E-02,2.0193E-02,2.5117E-02,2.6076E-02,2.2816E-02,2.1553E-02,1.9322E-02,1.7887E-02,1.8348E-02,1.8593E-02,1.7904E-02,1.7998E-02,1.6893E-02,1.6384E-02,1.3987E-02,1.3995E-02,1.5138E-02,1.2251E-02,1.2841E-02,1.1905E-02,1.0101E-02,8.5654E-03,8.0764E-03,7.4423E-03,9.0373E-03,9.4210E-03,9.1026E-03,6.6774E-03,6.1772E-03,6.2837E-03,5.6841E-03,5.3605E-03,4.9384E-03,4.5999E-03,5.1478E-03,5.3633E-03,5.4252E-03,5.1075E-03,4.6395E-03,4.2171E-03,3.6243E-03,3.5414E-03,3.2582E-03,2.5014E-03,2.4532E-03,2.3899E-03,2.1900E-03,1.9625E-03,1.8845E-03,1.8263E-03,1.7593E-03,1.5063E-03,1.2993E-03,1.1650E-03,8.9998E-04,3.4172E-04,290.00,5,50
93,0030,San Fernando,1971,Whittier Narrows Dam,96,289,6.61,288,50,83,2,34.4400,-118.4100,13,Sierra Madre-San Fernando,57.12,58.58,39.45,,51.47,39.45,-22.94,298.68,34.02,-118.053,SFERN\WND143.AT2,SFERN\WND233.AT2,SFERN\WNDDWN.AT2,143,233,0.125,0.125,0.125,1.1220E-01,1.0190E+01,6.8725E+00,1.1238E-01,1.1327E-01,1.1397E-01,1.1445E-01,1.1389E-01,1.1442E-01,1.1490E-01,1.1811E-01,1.1911E-01,1.2155E-01,1.2204E-01,1.2197E-01,1.2277E-01,1.2385E-01,1.2442E-01,1.2452E-01,1.1823E-01,1.2753E-01,1.3559E-01,1.3434E-01,1.3298E-01,1.3979E-01,1.5436E-01,1.7839E-01,1.9432E-01,2.3072E-01,2.5413E-01,2.4004E-01,2.3985E-01,2.8896E-01,2.9035E-01,3.0269E-01,3.3166E-01,3.5603E-01,3.2337E-01,3.3451E-01,3.7692E-01,3.4967E-01,3.1913E-01,3.2960E-01,2.7909E-01,2.7152E-01,2.6536E-01,2.4276E-01,2.1620E-01,2.0409E-01,2.1771E-01,2.1261E-01,2.1446E-01,2.1123E-01,2.0327E-01,1.7648E-01,1.5207E-01,1.4387E-01,1.4037E-01,1.4484E-01,1.4610E-01,1.1449E-01,1.2643E-01,1.4206E-01,1.3594E-01,1.1829E-01,1.0304E-01,8.9186E-02,8.1548E-02,7.0463E-02,6.7676E-02,6.0214E-02,5.2161E-02,5.8155E-02,4.8857E-02,4.9435E-02,5.3380E-02,4.7002E-02,3.7866E-02,4.0039E-02,3.9868E-02,3.8290E-02,3.6343E-02,3.7023E-02,4.6010E-02,4.8414E-02,4.2317E-02,3.1824E-02,3.2011E-02,3.2976E-02,3.3395E-02,3.4733E-02,3.5669E-02,3.5844E-02,3.6127E-02,3.3856E-02,3.1275E-02,2.9155E-02,2.7179E-02,2.2228E-02,1.8325E-02,1.5620E-02,1.3253E-02,1.1068E-02,9.0735E-03,7.2603E-03,6.2345E-03,5.6295E-03,5.0432E-03,3.9193E-03,2.9559E-03,2.4930E-03,2.1076E-03,1.7887E-03,1.1621E-03,285.00,5,50
94,0030,San Fernando,1971,Wrightwood - 6074 Park Dr,99,290,6.61,288,50,83,2,34.4400,-118.4100,13,Sierra Madre-San Fernando,72.17,73.33,61.64,,70.68,62.23,23.83,486,34.36,-117.63,SFERN\WTW025.AT2,SFERN\WTW295.AT2,SFERN\WTWDWN.AT2,25,295,0.250,0.250,0.250,4.8565E-02,4.5564E+00,2.3810E+00,4.8666E-02,4.9385E-02,4.9481E-02,4.9951E-02,4.9500E-02,4.9584E-02,4.9766E-02,5.0257E-02,5.0545E-02,5.3379E-02,5.3337E-02,5.3312E-02,5.3575E-02,5.5000E-02,5.7399E-02,5.8764E-02,5.9631E-02,5.7549E-02,6.4049E-02,6.5859E-02,6.8530E-02,6.8250E-02,7.5503E-02,9.2763E-02,1.0073E-01,8.3126E-02,9.7339E-02,1.0334E-01,9.7864E-02,8.9454E-02,9.1770E-02,1.0413E-01,1.0145E-01,1.1409E-01,1.3775E-01,1.5670E-01,1.4108E-01,1.4941E-01,1.2324E-01,1.1876E-01,1.3019E-01,1.4790E-01,1.6109E-01,1.6880E-01,1.5972E-01,1.2516E-01,1.1458E-01,1.2085E-01,1.2315E-01,1.2269E-01,1.2577E-01,1.1904E-01,1.0648E-01,1.0102E-01,9.3141E-02,9.1338E-02,9.3556E-02,8.1481E-02,6.6947E-02,5.2295E-02,4.5496E-02,3.9968E-02,3.7002E-02,3.5450E-02,3.5451E-02,3.3719E-02,3.5660E-02,3.6130E-02,3.1726E-02,2.8149E-02,2.1541E-02,1.6521E-02,1.5894E-02,1.6393E-02,1.5117E-02,1.4350E-02,1.1575E-02,9.9080E-03,1.1296E-02,1.0605E-02,9.5862E-03,9.3443E-03,7.3183E-03,5.9990E-03,6.0078E-03,6.5606E-03,6.3579E-03,6.0874E-03,5.5873E-03,5.2861E-03,5.4313E-03,4.7539E-03,4.2738E-03,4.3903E-03,4.2064E-03,4.3663E-03,5.9438E-03,7.5182E-03,7.8078E-03,6.9693E-03,6.0710E-03,5.3225E-03,4.4953E-03,3.7085E-03,3.0850E-03,2.2027E-03,1.5550E-03,1.2441E-03,9.8674E-04,7.8319E-04,3.1906E-04,285.00,5,50
