RecId,EqId,EqName,Year,Station,StationSeqNo,StationId,Magnitude,Strike,Dip,Rake,Mechanism,HypoCtrLatitude ,HypoCtrLongitude,HypocenterDepth,Fault Name,EpiD,HypD,JBD,CRD,RmsD,ClstD,Rx,Vs30,StationLatitude,StationLongitude,FileNameHorizontal1,FileNameHorizontal2,FileNameVertical,H1Azimith,H2Azimuth,LowestUsableFreqH1,LowestUsableFreqH2,Lowest Usable Freq,PGA,PGV,PGD,T0.010S,T0.020S,T0.022S,T0.025S,T0.029S,T0.030S,T0.032S,T0.035S,T0.036S,T0.040S,T0.042S,T0.044S,T0.045S,T0.046S,T0.048S,T0.050S,T0.055S,T0.060S,T0.065S,T0.067S,T0.070S,T0.075S,T0.080S,T0.085S,T0.090S,T0.095S,T0.100S,T0.110S,T0.120S,T0.130S,T0.133S,T0.140S,T0.150S,T0.160S,T0.170S,T0.180S,T0.190S,T0.200S,T0.220S,T0.240S,T0.250S,T0.260S,T0.280S,T0.290S,T0.300S,T0.320S,T0.340S,T0.350S,T0.360S,T0.380S,T0.400S,T0.420S,T0.440S,T0.450S,T0.460S,T0.480S,T0.500S,T0.550S,T0.600S,T0.650S,T0.667S,T0.700S,T0.750S,T0.800S,T0.850S,T0.900S,T0.950S,T1.000S,T1.100S,T1.200S,T1.300S,T1.400S,T1.500S,T1.600S,T1.700S,T1.800S,T1.900S,T2.000S,T2.200S,T2.400S,T2.500S,T2.600S,T2.800S,T3.000S,T3.200S,T3.400S,T3.500S,T3.600S,T3.800S,T4.000S,T4.200S,T4.400S,T4.600S,T4.800S,T5.000S,T5.500S,T6.000S,T6.500S,T7.000S,T7.500S,T8.000S,T8.500S,T9.000S,T9.500S,T10.000S,T11.000S,T12.000S,T13.000S,T14.000S,T15.000S,T20.000S,AveStrike ,Damping,RotD
132,0043,"Friuli, Italy-02",1976,Forgaria Cornino,255,8014,5.91,215.1,18.9,70,2,46.3750,13.0670,3.69,,17.96,18.34,14.65,,17.32,14.75,2.39,412.37,46.221,12.997,FRIULI.B\B-FOC000.AT2,FRIULI.B\B-FOC270.AT2,FRIULI.B\B-FOC-UP.AT2,0,270,0.275,0.188,0.275,2.2448E-01,9.4961E+00,1.4905E+00,2.2474E-01,2.3373E-01,2.3459E-01,2.5097E-01,2.6229E-01,2.6202E-01,2.6481E-01,2.5760E-01,2.4899E-01,2.4743E-01,2.4393E-01,2.3855E-01,2.3328E-01,2.3583E-01,2.6000E-01,2.6383E-01,2.6685E-01,2.9580E-01,3.0234E-01,3.2104E-01,3.4668E-01,3.7275E-01,3.9918E-01,3.9092E-01,3.5843E-01,4.3895E-01,4.9309E-01,5.3324E-01,5.0249E-01,5.3854E-01,5.9355E-01,6.0722E-01,7.6188E-01,8.6924E-01,8.0845E-01,7.0607E-01,6.8438E-01,6.0441E-01,4.9888E-01,5.2661E-01,5.0187E-01,4.6484E-01,4.2413E-01,4.3521E-01,4.4446E-01,4.4667E-01,4.4421E-01,4.9334E-01,5.5324E-01,5.8070E-01,4.9544E-01,4.4888E-01,3.9846E-01,3.7196E-01,3.4301E-01,2.9553E-01,2.5721E-01,1.8231E-01,1.1968E-01,1.1068E-01,1.0905E-01,9.3615E-02,7.1052E-02,6.3338E-02,5.5364E-02,5.4926E-02,5.1327E-02,4.9956E-02,4.2171E-02,4.9752E-02,5.4453E-02,5.3291E-02,4.9345E-02,4.0654E-02,3.2682E-02,3.1949E-02,3.2420E-02,3.3545E-02,3.7759E-02,3.3819E-02,3.1832E-02,2.9747E-02,2.5509E-02,2.0147E-02,1.6416E-02,1.2645E-02,1.0936E-02,1.0101E-02,8.2417E-03,7.3489E-03,6.4928E-03,5.7173E-03,4.9831E-03,4.3178E-03,3.7202E-03,2.7127E-03,2.4187E-03,2.0147E-03,1.6394E-03,1.3666E-03,1.1606E-03,1.0089E-03,8.8170E-04,7.7554E-04,6.9076E-04,5.7643E-04,4.8115E-04,4.0692E-04,3.4823E-04,3.0067E-04,1.6204E-04,215.09,5,50
133,0043,"Friuli, Italy-02",1976,San Rocco,256,8022,5.91,215.1,18.9,70,2,46.3750,13.0670,3.69,,17.53,17.91,14.37,,17.01,14.5,2.97,649.67,46.226,12.993,FRIULI.B\B-SRO000.AT2,FRIULI.B\B-SRO270.AT2,FRIULI.B\B-SRO-UP.AT2,0,270,0.288,0.163,0.288,1.1489E-01,6.5788E+00,1.4014E+00,1.1504E-01,1.1566E-01,1.1723E-01,1.1765E-01,1.1734E-01,1.1833E-01,1.1868E-01,1.2589E-01,1.2630E-01,1.2270E-01,1.2568E-01,1.2541E-01,1.2486E-01,1.2333E-01,1.2367E-01,1.2779E-01,1.2261E-01,1.2015E-01,1.2146E-01,1.1951E-01,1.2052E-01,1.4085E-01,1.5552E-01,1.6511E-01,1.6415E-01,1.5813E-01,1.6526E-01,1.8070E-01,2.1422E-01,2.4706E-01,2.6376E-01,2.9376E-01,2.8275E-01,2.9450E-01,3.0493E-01,2.9465E-01,2.6277E-01,2.4173E-01,3.0152E-01,3.5668E-01,3.5333E-01,3.3978E-01,3.0938E-01,2.8715E-01,2.6105E-01,2.0564E-01,1.6892E-01,1.5717E-01,1.5285E-01,1.5297E-01,1.5363E-01,1.4729E-01,1.3179E-01,1.2554E-01,1.2006E-01,1.0524E-01,8.6794E-02,7.8378E-02,7.5201E-02,6.1285E-02,6.4270E-02,7.2854E-02,7.8057E-02,7.1199E-02,6.5612E-02,6.2461E-02,5.9164E-02,5.6393E-02,5.8749E-02,6.8540E-02,7.4281E-02,7.0414E-02,6.0820E-02,5.0028E-02,4.3755E-02,3.9559E-02,3.6672E-02,3.3974E-02,3.8386E-02,3.6971E-02,3.4998E-02,3.2809E-02,2.6596E-02,1.9310E-02,1.5032E-02,1.2482E-02,1.0956E-02,9.4751E-03,7.7975E-03,6.7876E-03,5.8924E-03,5.1214E-03,4.4513E-03,3.9484E-03,3.5907E-03,2.8811E-03,2.3126E-03,1.9552E-03,1.6493E-03,1.3988E-03,1.1961E-03,1.0290E-03,8.9119E-04,7.7709E-04,6.8035E-04,5.4731E-04,4.5182E-04,3.7794E-04,3.2016E-04,2.7480E-04,1.4734E-04,215.09,5,50
135,0045,Santa Barbara,1978,Cachuma Dam Toe,70,106,5.92,295,30,57,3,34.3987,-119.6813,12.7,North Channel Slope fault,34.02,36.32,23.75,,31.54,27.42,8.67,465.51,34.58,-119.98,SBARB\CAD250.AT2,SBARB\CAD340.AT2,SBARB\CAD-UP.AT2,250,340,0.250,0.125,0.250,5.3503E-02,4.6558E+00,9.5389E-01,5.4171E-02,5.3601E-02,5.3739E-02,5.3886E-02,5.4601E-02,5.4597E-02,5.4158E-02,5.5540E-02,5.5575E-02,5.5240E-02,5.5159E-02,5.5749E-02,5.5661E-02,5.5627E-02,5.6167E-02,5.6614E-02,5.5444E-02,5.5246E-02,5.7166E-02,5.8163E-02,6.0166E-02,5.9508E-02,6.3814E-02,7.2660E-02,7.5273E-02,7.7336E-02,7.8431E-02,7.3945E-02,7.6482E-02,7.8283E-02,7.6360E-02,7.8235E-02,9.2066E-02,1.0266E-01,1.1514E-01,1.2731E-01,1.2909E-01,1.2805E-01,1.5120E-01,1.6660E-01,1.7025E-01,1.7418E-01,1.7868E-01,1.6759E-01,1.4996E-01,1.0913E-01,8.6506E-02,8.2785E-02,8.1793E-02,8.5075E-02,9.2966E-02,8.8787E-02,8.3813E-02,8.3248E-02,8.2593E-02,7.9573E-02,7.8809E-02,8.2876E-02,6.9764E-02,7.0485E-02,7.0739E-02,7.0748E-02,6.8647E-02,6.4045E-02,6.2673E-02,6.1633E-02,6.0872E-02,5.9163E-02,5.3971E-02,4.9801E-02,4.4665E-02,4.5080E-02,3.9320E-02,3.7393E-02,3.5645E-02,3.2821E-02,3.0776E-02,2.8145E-02,2.3581E-02,1.8533E-02,1.6142E-02,1.3936E-02,1.1063E-02,8.4860E-03,6.5790E-03,5.4828E-03,5.0850E-03,4.7023E-03,4.0406E-03,3.4808E-03,3.0234E-03,2.6450E-03,2.3336E-03,2.0767E-03,1.8629E-03,1.4621E-03,1.1873E-03,9.9008E-04,8.4147E-04,7.2408E-04,6.3189E-04,5.5684E-04,4.9476E-04,4.4271E-04,3.9780E-04,3.2712E-04,2.7415E-04,2.3276E-04,1.9991E-04,1.7392E-04,9.7025E-05,295.00,5,50
136,0045,Santa Barbara,1978,Santa Barbara Courthouse,92,283,5.92,295,30,57,3,34.3987,-119.6813,12.7,North Channel Slope fault,3.20,13.10,0,,13.44,12.16,3.64,514.99,34.423,-119.7,SBARB\SBA132.AT2,SBARB\SBA222.AT2,SBARB\SBA-UP.AT2,132,222,0.125,0.163,0.163,1.4991E-01,1.3847E+01,2.5372E+00,1.5124E-01,1.4991E-01,1.5030E-01,1.5122E-01,1.5104E-01,1.5091E-01,1.5105E-01,1.5072E-01,1.5092E-01,1.5293E-01,1.5511E-01,1.5569E-01,1.5508E-01,1.5425E-01,1.5121E-01,1.5166E-01,1.5869E-01,1.5480E-01,1.5569E-01,1.5687E-01,1.6274E-01,1.7966E-01,1.9128E-01,2.0153E-01,2.0920E-01,2.1057E-01,1.8756E-01,1.9237E-01,2.0724E-01,2.1456E-01,2.1957E-01,2.5809E-01,2.8853E-01,3.2926E-01,3.1778E-01,2.4919E-01,2.2959E-01,2.3775E-01,2.6370E-01,3.0338E-01,2.9324E-01,3.0766E-01,3.3741E-01,3.8700E-01,4.2244E-01,3.9392E-01,3.2837E-01,3.0163E-01,2.8725E-01,2.6638E-01,2.4594E-01,2.3588E-01,2.4035E-01,2.4708E-01,2.5554E-01,2.7901E-01,3.1537E-01,3.8681E-01,3.8750E-01,3.3361E-01,3.1537E-01,2.7285E-01,2.2896E-01,1.9457E-01,1.7528E-01,1.6245E-01,1.4916E-01,1.3586E-01,1.1081E-01,9.1082E-02,9.0727E-02,9.6456E-02,9.0041E-02,7.5833E-02,7.4988E-02,7.8238E-02,7.4743E-02,6.5388E-02,5.1997E-02,4.6014E-02,4.0474E-02,3.5214E-02,2.8096E-02,2.1268E-02,1.7420E-02,1.4439E-02,1.3413E-02,1.2484E-02,1.0842E-02,9.4091E-03,8.4083E-03,7.5351E-03,6.7849E-03,6.1292E-03,5.5387E-03,4.4514E-03,3.7860E-03,3.2241E-03,2.6884E-03,2.2251E-03,1.8335E-03,1.5819E-03,1.3814E-03,1.2161E-03,1.0782E-03,8.7460E-04,7.3391E-04,6.2413E-04,5.3723E-04,4.6705E-04,2.6014E-04,295,5,50
138,0046,"Tabas, Iran",1978,Boshrooyeh,57,70,7.35,330,25,110,2,33.2150,57.3230,5.75,,74.66,74.88,24.07,,50.7,28.79,55.79,324.57,33.88,57.43,TABAS\BOS-L1.AT2,TABAS\BOS-T1.AT2,TABAS\BOS-V1.AT2,79,349,0.156,0.156,0.156,1.0362E-01,1.4581E+01,7.9205E+00,1.0487E-01,1.0574E-01,1.0767E-01,1.0878E-01,1.0563E-01,1.0645E-01,1.0730E-01,1.0835E-01,1.0868E-01,1.0944E-01,1.0927E-01,1.0911E-01,1.0946E-01,1.0917E-01,1.0857E-01,1.0904E-01,1.1278E-01,1.1093E-01,1.1284E-01,1.1394E-01,1.1658E-01,1.2834E-01,1.3347E-01,1.4003E-01,1.4294E-01,1.5687E-01,1.6138E-01,1.7772E-01,2.0279E-01,2.0178E-01,2.0502E-01,2.1369E-01,2.4455E-01,2.3529E-01,2.7342E-01,2.5070E-01,2.3040E-01,2.1752E-01,2.2529E-01,2.2394E-01,2.3343E-01,2.6030E-01,2.3602E-01,2.2197E-01,2.1852E-01,2.0704E-01,2.6281E-01,2.9940E-01,3.0962E-01,2.7720E-01,2.6557E-01,2.5442E-01,2.6549E-01,2.7847E-01,2.8850E-01,2.9442E-01,2.9602E-01,2.9120E-01,1.9894E-01,1.8408E-01,1.7422E-01,1.5680E-01,1.6018E-01,1.7006E-01,1.8622E-01,1.8211E-01,1.6956E-01,1.2912E-01,1.1473E-01,1.2608E-01,1.4337E-01,1.3646E-01,1.3781E-01,1.3758E-01,1.4652E-01,1.3528E-01,1.1318E-01,9.3391E-02,6.9384E-02,5.7251E-02,5.3405E-02,5.3326E-02,5.4756E-02,5.7299E-02,5.2919E-02,5.2694E-02,5.3646E-02,5.3572E-02,5.0107E-02,4.4250E-02,4.6012E-02,4.1594E-02,3.6100E-02,3.5914E-02,3.3563E-02,3.0762E-02,2.8818E-02,2.3171E-02,1.7845E-02,1.4118E-02,1.1076E-02,9.1897E-03,7.8687E-03,6.7191E-03,5.7703E-03,4.4321E-03,3.5876E-03,2.9855E-03,2.7074E-03,2.4108E-03,1.1858E-03,330.00,5,50
139,0046,"Tabas, Iran",1978,Dayhook,259,9102,7.35,330,25,110,2,33.2150,57.3230,5.75,,20.63,21.41,0,,27.48,13.94,30.83,471.53,33.3,57.52,TABAS\DAY-L1.AT2,TABAS\DAY-T1.AT2,TABAS\DAY-V1.AT2,280,190,0.018,0.250,0.250,3.3337E-01,2.5872E+01,1.2177E+01,3.4333E-01,3.4495E-01,3.7150E-01,3.8343E-01,3.7792E-01,3.7725E-01,3.6682E-01,3.4560E-01,3.3928E-01,3.3544E-01,3.4241E-01,3.5309E-01,3.5957E-01,3.6736E-01,3.8154E-01,3.9473E-01,4.2832E-01,4.3694E-01,4.7368E-01,4.9083E-01,5.0980E-01,5.1293E-01,5.7197E-01,5.8928E-01,6.3195E-01,6.7526E-01,7.2868E-01,7.8305E-01,8.5923E-01,8.5432E-01,8.2624E-01,9.1673E-01,9.5460E-01,1.0345E+00,9.4537E-01,9.3319E-01,1.0389E+00,1.0019E+00,7.2979E-01,7.1291E-01,6.5838E-01,7.0363E-01,5.9109E-01,6.0003E-01,5.9066E-01,6.5189E-01,7.4556E-01,8.0710E-01,8.5591E-01,9.3775E-01,9.2021E-01,8.5868E-01,7.5932E-01,7.2020E-01,6.8751E-01,6.4922E-01,6.1938E-01,6.2630E-01,5.1731E-01,4.0524E-01,4.0243E-01,4.1938E-01,4.4559E-01,3.8241E-01,3.7451E-01,3.4482E-01,3.2025E-01,3.0646E-01,2.2865E-01,2.4014E-01,2.0445E-01,1.9155E-01,1.7277E-01,1.6739E-01,1.7026E-01,1.6172E-01,1.4936E-01,1.3755E-01,1.0758E-01,8.1778E-02,7.8212E-02,8.0342E-02,8.3543E-02,7.3942E-02,7.3378E-02,6.5421E-02,6.1731E-02,5.8140E-02,4.7888E-02,4.4565E-02,4.3110E-02,3.7789E-02,3.3812E-02,3.0366E-02,2.8815E-02,2.6183E-02,2.1451E-02,1.7713E-02,1.5413E-02,1.7187E-02,1.7805E-02,1.7430E-02,1.5953E-02,1.4009E-02,1.2120E-02,9.5201E-03,7.2134E-03,5.4116E-03,4.3631E-03,3.7052E-03,1.5670E-03,330.00,5,50
143,0046,"Tabas, Iran",1978,Tabas,258,9101,7.35,330,25,110,2,33.2150,57.3230,5.75,,55.24,55.54,1.79,,21.13,2.05,-1.79,766.77,33.58,56.92,TABAS\TAB-L1.AT2,TABAS\TAB-T1.AT2,TABAS\TAB-V1.AT2,74,344,0.125,0.100,0.125,8.1245E-01,1.1353E+02,7.2006E+01,8.2945E-01,8.3554E-01,8.9095E-01,9.3617E-01,8.6154E-01,8.5865E-01,8.4830E-01,8.5215E-01,8.5563E-01,8.6688E-01,8.6729E-01,8.6535E-01,8.6188E-01,8.6508E-01,8.7449E-01,8.7812E-01,9.4144E-01,1.0148E+00,1.0468E+00,1.0713E+00,1.2157E+00,1.4540E+00,1.6598E+00,1.8255E+00,1.6412E+00,1.6611E+00,1.8252E+00,2.0082E+00,2.1471E+00,2.5320E+00,2.5856E+00,2.6007E+00,2.7851E+00,2.6684E+00,2.6728E+00,3.0523E+00,2.9685E+00,2.7478E+00,2.7919E+00,3.3716E+00,3.2418E+00,2.7023E+00,2.0664E+00,1.8593E+00,1.6601E+00,1.7562E+00,1.6991E+00,1.6306E+00,1.6032E+00,1.5427E+00,1.5844E+00,1.6326E+00,1.7163E+00,1.7424E+00,1.7563E+00,1.6887E+00,1.6188E+00,1.5622E+00,1.5048E+00,1.2013E+00,1.2503E+00,1.5333E+00,1.6709E+00,1.4896E+00,1.3664E+00,1.1673E+00,8.2594E-01,7.0173E-01,5.7897E-01,6.5684E-01,6.4676E-01,5.3648E-01,4.8212E-01,5.1281E-01,4.7164E-01,4.9522E-01,5.3448E-01,5.2182E-01,4.4497E-01,3.4858E-01,3.3323E-01,3.2928E-01,3.3238E-01,3.0938E-01,2.9662E-01,2.9923E-01,2.9606E-01,2.9332E-01,2.8841E-01,2.9750E-01,3.0887E-01,3.1740E-01,3.1606E-01,3.1819E-01,3.1052E-01,2.7901E-01,2.2916E-01,1.8608E-01,1.4714E-01,1.1175E-01,8.8699E-02,7.5023E-02,6.3994E-02,5.5384E-02,5.0132E-02,4.0718E-02,3.2898E-02,2.6647E-02,2.1718E-02,1.7855E-02,8.5831E-03,330.00,5,50
145,0048,Coyote Lake,1979,Coyote Lake Dam - Southwest Abutment,449,57217,5.74,336,80,176,0,37.0650,-121.4900,8,Calaveras fault south,7.95,11.28,5.3,,10.45,6.13,-1.6,561.43,37.118,-121.55,COYOTELK\CYC160.AT2,COYOTELK\CYC250.AT2,COYOTELK\CYC-UP.AT2,160,250,0.163,0.250,0.250,2.2575E-01,1.6785E+01,2.2149E+00,2.2740E-01,2.2883E-01,2.3353E-01,2.3590E-01,2.3707E-01,2.3797E-01,2.3624E-01,2.4786E-01,2.4801E-01,2.5462E-01,2.5680E-01,2.5314E-01,2.4930E-01,2.4717E-01,2.4874E-01,2.4853E-01,2.4155E-01,2.4853E-01,2.6619E-01,2.7468E-01,2.7545E-01,2.7376E-01,2.7964E-01,2.9513E-01,2.7477E-01,2.7942E-01,3.3156E-01,3.3380E-01,3.7540E-01,3.4807E-01,3.5169E-01,3.6516E-01,3.8441E-01,3.9115E-01,4.0222E-01,3.8756E-01,3.4976E-01,3.4032E-01,3.4274E-01,3.6337E-01,3.3597E-01,3.5395E-01,3.8622E-01,4.0346E-01,4.3113E-01,4.6834E-01,4.9254E-01,5.1806E-01,5.5041E-01,5.8557E-01,5.8552E-01,5.7956E-01,5.7107E-01,5.6365E-01,5.5453E-01,5.3159E-01,5.0312E-01,4.3096E-01,3.9873E-01,3.2885E-01,3.1705E-01,2.7832E-01,2.4713E-01,2.1654E-01,1.8789E-01,1.6198E-01,1.3907E-01,1.1939E-01,9.0989E-02,7.4786E-02,7.6631E-02,7.2777E-02,6.3919E-02,5.3960E-02,4.7672E-02,4.1100E-02,3.3142E-02,3.0170E-02,2.8709E-02,2.6192E-02,2.2931E-02,1.9955E-02,1.4972E-02,1.2143E-02,1.0543E-02,9.2287E-03,8.6600E-03,8.1407E-03,7.2289E-03,6.4602E-03,5.8061E-03,5.2454E-03,4.7617E-03,4.3416E-03,3.9743E-03,3.2370E-03,2.6874E-03,2.2672E-03,1.9386E-03,1.6770E-03,1.4653E-03,1.2914E-03,1.1469E-03,1.0256E-03,9.2258E-04,7.5838E-04,6.3457E-04,5.3890E-04,4.6341E-04,4.0290E-04,2.2511E-04,336.01,5,50
146,0048,Coyote Lake,1979,Gilroy Array #1,424,47379,5.74,336,80,176,0,37.0650,-121.4900,8,Calaveras fault south,12.57,14.90,10.21,,13.59,10.67,-9.95,1428.14,36.973,-121.572,COYOTELK\G01230.AT2,COYOTELK\G01320.AT2,COYOTELK\G01-UP.AT2,230,320,0.150,0.000,0.150,1.0589E-01,7.6490E+00,2.0917E+00,1.0702E-01,1.1263E-01,1.1282E-01,1.1458E-01,1.2446E-01,1.3065E-01,1.4507E-01,1.5311E-01,1.5135E-01,1.4398E-01,1.5118E-01,1.6285E-01,1.7226E-01,1.8566E-01,2.0254E-01,2.0349E-01,2.3073E-01,3.0119E-01,2.6822E-01,2.4016E-01,2.2653E-01,2.5553E-01,3.3003E-01,3.8223E-01,3.7070E-01,3.2975E-01,3.3047E-01,2.9985E-01,2.7512E-01,2.9792E-01,2.7316E-01,2.4336E-01,2.5738E-01,2.6419E-01,3.1533E-01,3.4245E-01,3.1644E-01,2.9213E-01,2.3567E-01,1.9657E-01,1.7472E-01,1.7321E-01,1.9156E-01,1.8952E-01,1.8133E-01,1.4955E-01,1.4215E-01,1.3386E-01,1.1840E-01,1.0488E-01,8.9373E-02,7.8316E-02,7.1598E-02,7.0462E-02,6.8850E-02,6.5436E-02,6.9080E-02,7.5669E-02,8.8512E-02,9.5712E-02,9.5434E-02,9.5090E-02,9.0255E-02,8.6474E-02,8.2146E-02,7.9233E-02,7.7097E-02,7.2106E-02,6.2227E-02,5.4114E-02,4.8040E-02,4.2101E-02,3.6603E-02,3.1692E-02,2.7723E-02,2.4264E-02,2.2421E-02,2.1353E-02,1.8635E-02,1.5460E-02,1.4258E-02,1.3504E-02,1.1755E-02,9.8977E-03,8.2849E-03,7.0158E-03,6.6262E-03,6.3120E-03,5.7208E-03,5.2146E-03,4.7575E-03,4.4704E-03,4.5979E-03,4.4423E-03,4.4600E-03,4.3562E-03,3.7298E-03,2.7885E-03,2.2167E-03,1.7537E-03,1.3973E-03,1.1978E-03,1.1008E-03,1.0131E-03,9.5075E-04,1.0090E-03,9.1102E-04,7.0234E-04,5.7630E-04,4.8442E-04,2.1680E-04,336,5,50
147,0048,Coyote Lake,1979,Gilroy Array #2,425,47380,5.74,336,80,176,0,37.0650,-121.4900,8,Calaveras fault south,10.94,13.55,8.47,,12.11,9.02,-8.25,270.84,36.982,-121.556,COYOTELK\G02050.AT2,COYOTELK\G02140.AT2,COYOTELK\G02-UP.AT2,50,140,0.163,0.163,0.163,2.4761E-01,2.4335E+01,4.3741E+00,2.4790E-01,2.5836E-01,2.6306E-01,2.6481E-01,2.6391E-01,2.6263E-01,2.5844E-01,2.6300E-01,2.6256E-01,2.7427E-01,2.9546E-01,3.0845E-01,3.0872E-01,3.0477E-01,3.2472E-01,3.5188E-01,3.6891E-01,3.5401E-01,4.2909E-01,4.5561E-01,4.5987E-01,4.5909E-01,5.5481E-01,6.1639E-01,6.1972E-01,5.6769E-01,5.9237E-01,5.7617E-01,5.6131E-01,6.0926E-01,6.4119E-01,7.1595E-01,8.5373E-01,8.8813E-01,8.4689E-01,7.7968E-01,7.7754E-01,7.4224E-01,6.2571E-01,5.7349E-01,5.5850E-01,5.7057E-01,5.9541E-01,6.3111E-01,6.8144E-01,7.6680E-01,7.5476E-01,7.4812E-01,7.2509E-01,6.5039E-01,5.4364E-01,4.6743E-01,4.0091E-01,3.8902E-01,3.7482E-01,3.4278E-01,3.1038E-01,2.8841E-01,2.7104E-01,2.7492E-01,2.8453E-01,2.9911E-01,3.0800E-01,3.0034E-01,2.8190E-01,2.6303E-01,2.4833E-01,2.3800E-01,2.2654E-01,2.0507E-01,1.8204E-01,1.6144E-01,1.5108E-01,1.3920E-01,1.2183E-01,1.0621E-01,9.1561E-02,8.1154E-02,6.6464E-02,5.2946E-02,4.7325E-02,4.2810E-02,3.4752E-02,2.8820E-02,2.4306E-02,2.1343E-02,1.9997E-02,1.8697E-02,1.6249E-02,1.4041E-02,1.2243E-02,1.1173E-02,1.0223E-02,9.3991E-03,8.6510E-03,7.1047E-03,5.9125E-03,4.9814E-03,4.2436E-03,3.6531E-03,3.1761E-03,2.7842E-03,2.4597E-03,2.1881E-03,1.9589E-03,1.5963E-03,1.3257E-03,1.1185E-03,9.5664E-04,8.2764E-04,4.5540E-04,336.01,5,50
148,0048,Coyote Lake,1979,Gilroy Array #3,426,47381,5.74,336,80,176,0,37.0650,-121.4900,8,Calaveras fault south,9.59,12.49,6.75,,10.86,7.42,-6.4,349.85,36.987,-121.536,COYOTELK\G03050.AT2,COYOTELK\G03140.AT2,COYOTELK\G03-UP.AT2,50,140,0.000,0.163,0.163,2.4690E-01,2.3918E+01,5.2485E+00,2.4818E-01,2.5568E-01,2.5910E-01,2.5816E-01,2.6206E-01,2.6374E-01,2.6863E-01,2.8132E-01,2.8695E-01,3.0131E-01,3.0911E-01,3.1998E-01,3.2382E-01,3.2106E-01,3.1860E-01,3.1967E-01,3.1475E-01,3.1012E-01,3.6004E-01,3.6823E-01,3.6158E-01,4.2200E-01,4.1750E-01,4.2836E-01,4.6938E-01,4.7909E-01,5.6402E-01,6.6678E-01,6.6749E-01,7.0946E-01,7.3060E-01,7.4070E-01,7.5212E-01,7.3547E-01,6.6306E-01,5.9215E-01,5.4198E-01,4.7610E-01,4.2619E-01,4.6940E-01,4.7800E-01,4.7315E-01,5.4626E-01,5.8287E-01,5.9720E-01,5.8019E-01,4.9481E-01,4.8199E-01,4.7384E-01,4.5726E-01,4.5315E-01,3.9049E-01,3.2475E-01,3.1227E-01,3.0398E-01,3.0077E-01,3.0686E-01,3.2407E-01,3.0216E-01,3.1849E-01,3.2300E-01,3.2992E-01,3.4777E-01,3.5446E-01,3.6548E-01,3.7542E-01,3.9057E-01,3.8774E-01,3.2887E-01,2.4786E-01,1.9028E-01,1.5963E-01,1.3857E-01,1.2391E-01,1.0964E-01,1.0487E-01,1.0003E-01,9.0593E-02,7.1875E-02,6.2120E-02,6.0078E-02,5.8174E-02,4.9927E-02,3.6353E-02,3.0781E-02,2.7192E-02,2.5508E-02,2.3985E-02,2.0915E-02,1.7969E-02,1.6610E-02,1.5205E-02,1.3869E-02,1.2612E-02,1.1476E-02,9.0314E-03,7.0983E-03,5.9871E-03,5.1578E-03,4.4749E-03,3.9082E-03,3.4364E-03,3.0431E-03,2.7090E-03,2.4240E-03,1.9745E-03,1.6343E-03,1.3756E-03,1.1720E-03,1.0103E-03,5.4824E-04,336.01,5,50
149,0048,Coyote Lake,1979,Gilroy Array #4,450,57382,5.74,336,80,176,0,37.0650,-121.4900,8,Calaveras fault south,7.67,11.08,4.79,,9.24,5.7,-4.63,221.78,37.001,-121.522,COYOTELK\G04270.AT2,COYOTELK\G04360.AT2,COYOTELK\G04-UP.AT2,270,0,0.009,0.150,0.150,2.4506E-01,2.7921E+01,4.5235E+00,2.4519E-01,2.4547E-01,2.4658E-01,2.4664E-01,2.4585E-01,2.4661E-01,2.4746E-01,2.4791E-01,2.4841E-01,2.5169E-01,2.4846E-01,2.5482E-01,2.5843E-01,2.6172E-01,2.6169E-01,2.5879E-01,2.6225E-01,2.8696E-01,3.1260E-01,3.2261E-01,3.1651E-01,2.8933E-01,3.0156E-01,3.2064E-01,3.1016E-01,3.2459E-01,3.3275E-01,3.8006E-01,3.4975E-01,3.8541E-01,3.7779E-01,3.5547E-01,3.6975E-01,4.0320E-01,4.3726E-01,4.7552E-01,5.0281E-01,4.8821E-01,4.5341E-01,5.1497E-01,5.4874E-01,5.9719E-01,7.4868E-01,7.5960E-01,7.4201E-01,7.2804E-01,6.6513E-01,6.5451E-01,6.5715E-01,6.5746E-01,6.4811E-01,6.0572E-01,5.5174E-01,5.2890E-01,5.1144E-01,5.1316E-01,5.2437E-01,4.6377E-01,4.0623E-01,4.2726E-01,4.4412E-01,4.1126E-01,4.1223E-01,3.9984E-01,3.9161E-01,3.7736E-01,3.6497E-01,3.5312E-01,2.8381E-01,2.2930E-01,1.9869E-01,1.8686E-01,1.6349E-01,1.3489E-01,1.1266E-01,1.0377E-01,8.5315E-02,7.3176E-02,5.3824E-02,4.5786E-02,4.0830E-02,3.5766E-02,3.1390E-02,2.8520E-02,2.8166E-02,2.4926E-02,2.3728E-02,2.2165E-02,1.9963E-02,1.7600E-02,1.5479E-02,1.3425E-02,1.1586E-02,1.0182E-02,9.1173E-03,7.4514E-03,5.9347E-03,4.9047E-03,4.1810E-03,3.6094E-03,3.1566E-03,2.7636E-03,2.4011E-03,2.0550E-03,1.7739E-03,1.4989E-03,1.2350E-03,1.0542E-03,9.1045E-04,7.9422E-04,4.4931E-04,336.01,5,50
